; Generated by ILC simulator
G21 ; mm
G90 ; absolute
G92 E0
G1 F1500
G0 X1 Y-1.91934e-17 Z0
G1 X0.960268 Y0.0402472 Z6.66667e-05 E0.0011311
G1 X0.918988 Y0.0771696 Z0.000133333 E0.00223877
G1 X0.876368 Y0.110711 Z0.0002 E0.00332348
G1 X0.832619 Y0.140827 Z0.000266667 E0.00438573
G1 X0.787952 Y0.167484 Z0.000333333 E0.00542606
G1 X0.74258 Y0.190662 Z0.0004 E0.00644505
G1 X0.696716 Y0.210351 Z0.000466667 E0.00744329
G1 X0.65057 Y0.226553 Z0.000533333 E0.00842143
G1 X0.604355 Y0.239281 Z0.0006 E0.00938016
G1 X0.558278 Y0.248561 Z0.000666667 E0.0103202
G1 X0.512546 Y0.25443 Z0.000733333 E0.0112423
G1 X0.467364 Y0.256935 Z0.0008 E0.0121474
G1 X0.42293 Y0.256136 Z0.000866667 E0.0130362
G1 X0.379442 Y0.252101 Z0.000933333 E0.0139097
G1 X0.33709 Y0.244911 Z0.001 E0.0147688
G1 X0.357016 Y0.282967 Z0.00106667 E0.015628
G1 X0.374292 Y0.32308 Z0.00113333 E0.0165015
G1 X0.388783 Y0.365092 Z0.0012 E0.0173903
G1 X0.400363 Y0.408837 Z0.00126667 E0.0182954
G1 X0.408913 Y0.454144 Z0.00133333 E0.0192175
G1 X0.414326 Y0.500834 Z0.0014 E0.0201575
G1 X0.416502 Y0.548721 Z0.00146667 E0.0211163
G1 X0.415353 Y0.597614 Z0.00153333 E0.0220944
G1 X0.410801 Y0.647318 Z0.0016 E0.0230926
G1 X0.402778 Y0.697632 Z0.00166667 E0.0241116
G1 X0.391228 Y0.74835 Z0.00173333 E0.025152
G1 X0.376105 Y0.799264 Z0.0018 E0.0262142
G1 X0.357375 Y0.850163 Z0.00186667 E0.0272989
G1 X0.335016 Y0.900832 Z0.00193333 E0.0284066
G1 X0.309017 Y0.951057 Z0.002 E0.0295377
G1 X0.258462 Y0.925706 Z0.00206667 E0.0306688
G1 X0.21059 Y0.897856 Z0.00213333 E0.0317765
G1 X0.16552 Y0.867687 Z0.0022 E0.0328612
G1 X0.123359 Y0.835386 Z0.00226667 E0.0339234
G1 X0.0842035 Y0.801143 Z0.00233333 E0.0349638
G1 X0.0481394 Y0.765154 Z0.0024 E0.0359827
G1 X0.0152414 Y0.727618 Z0.00246667 E0.036981
G1 X-0.014427 Y0.688738 Z0.00253333 E0.0379591
G1 X-0.0408138 Y0.648717 Z0.0026 E0.0389178
G1 X-0.0638785 Y0.607763 Z0.00266667 E0.0398579
G1 X-0.083592 Y0.566084 Z0.00273333 E0.04078
G1 X-0.0999367 Y0.523887 Z0.0028 E0.0416851
G1 X-0.112907 Y0.481381 Z0.00286667 E0.0425739
G1 X-0.122508 Y0.438774 Z0.00293333 E0.0434474
G1 X-0.128757 Y0.396274 Z0.003 E0.0443065
G1 X-0.158794 Y0.426984 Z0.00306667 E0.0451657
G1 X-0.191605 Y0.45581 Z0.00313333 E0.0460392
G1 X-0.227082 Y0.482574 Z0.0032 E0.046928
G1 X-0.265108 Y0.507105 Z0.00326667 E0.047833
G1 X-0.305556 Y0.529238 Z0.00333333 E0.0487552
G1 X-0.348287 Y0.548813 Z0.0034 E0.0496952
G1 X-0.393158 Y0.565681 Z0.00346667 E0.0506539
G1 X-0.440014 Y0.579697 Z0.00353333 E0.0516321
G1 X-0.488692 Y0.590727 Z0.0036 E0.0526303
G1 X-0.539022 Y0.598644 Z0.00366667 E0.0536493
G1 X-0.590827 Y0.603332 Z0.00373333 E0.0546896
G1 X-0.643922 Y0.604683 Z0.0038 E0.0557519
G1 X-0.698118 Y0.602599 Z0.00386667 E0.0568366
G1 X-0.753216 Y0.596992 Z0.00393333 E0.0579443
G1 X-0.809017 Y0.587785 Z0.004 E0.0590754
G1 X-0.80053 Y0.531871 Z0.00406667 E0.0602065
G1 X-0.788836 Y0.477736 Z0.00413333 E0.0613141
G1 X-0.774071 Y0.425549 Z0.0042 E0.0623989
G1 X-0.756379 Y0.37547 Z0.00426667 E0.0634611
G1 X-0.735912 Y0.327649 Z0.00433333 E0.0645014
G1 X-0.712829 Y0.282229 Z0.0044 E0.0655204
G1 X-0.687296 Y0.239342 Z0.00446667 E0.0665187
G1 X-0.659487 Y0.199111 Z0.00453333 E0.0674968
G1 X-0.629579 Y0.161648 Z0.0046 E0.0684555
G1 X-0.597757 Y0.127057 Z0.00466667 E0.0693956
G1 X-0.564209 Y0.0954288 Z0.00473333 E0.0703177
G1 X-0.529128 Y0.0668444 Z0.0048 E0.0712228
G1 X-0.49271 Y0.041374 Z0.00486667 E0.0721116
G1 X-0.455156 Y0.0190767 Z0.00493333 E0.0729851
G1 X-0.416667 Y3.18335e-17 Z0.005 E0.0738442
G1 X-0.455156 Y-0.0190767 Z0.00506667 E0.0747034
G1 X-0.49271 Y-0.041374 Z0.00513333 E0.0755769
G1 X-0.529128 Y-0.0668444 Z0.0052 E0.0764657
G1 X-0.564209 Y-0.0954288 Z0.00526667 E0.0773707
G1 X-0.597757 Y-0.127057 Z0.00533333 E0.0782929
G1 X-0.629579 Y-0.161648 Z0.0054 E0.0792329
G1 X-0.659487 Y-0.199111 Z0.00546667 E0.0801916
G1 X-0.687296 Y-0.239342 Z0.00553333 E0.0811698
G1 X-0.712829 Y-0.282229 Z0.0056 E0.082168
G1 X-0.735912 Y-0.327649 Z0.00566667 E0.083187
G1 X-0.756379 Y-0.37547 Z0.00573333 E0.0842273
G1 X-0.774071 Y-0.425549 Z0.0058 E0.0852896
G1 X-0.788836 Y-0.477736 Z0.00586667 E0.0863743
G1 X-0.80053 Y-0.531871 Z0.00593333 E0.087482
G1 X-0.809017 Y-0.587785 Z0.006 E0.0886131
G1 X-0.753216 Y-0.596992 Z0.00606667 E0.0897442
G1 X-0.698118 Y-0.602599 Z0.00613333 E0.0908518
G1 X-0.643922 Y-0.604683 Z0.0062 E0.0919365
G1 X-0.590827 Y-0.603332 Z0.00626667 E0.0929988
G1 X-0.539022 Y-0.598644 Z0.00633333 E0.0940391
G1 X-0.488692 Y-0.590727 Z0.0064 E0.0950581
G1 X-0.440014 Y-0.579697 Z0.00646667 E0.0960564
G1 X-0.393158 Y-0.565681 Z0.00653333 E0.0970345
G1 X-0.348287 Y-0.548813 Z0.0066 E0.0979932
G1 X-0.305556 Y-0.529238 Z0.00666667 E0.0989333
G1 X-0.265108 Y-0.507105 Z0.00673333 E0.0998554
G1 X-0.227082 Y-0.482574 Z0.0068 E0.10076
G1 X-0.191605 Y-0.45581 Z0.00686667 E0.101649
G1 X-0.158794 Y-0.426984 Z0.00693333 E0.102523
G1 X-0.128757 Y-0.396274 Z0.007 E0.103382
G1 X-0.122508 Y-0.438774 Z0.00706667 E0.104241
G1 X-0.112907 Y-0.481381 Z0.00713333 E0.105115
G1 X-0.0999367 Y-0.523887 Z0.0072 E0.106003
G1 X-0.083592 Y-0.566084 Z0.00726667 E0.106908
G1 X-0.0638785 Y-0.607763 Z0.00733333 E0.107831
G1 X-0.0408138 Y-0.648717 Z0.0074 E0.108771
G1 X-0.014427 Y-0.688738 Z0.00746667 E0.109729
G1 X0.0152414 Y-0.727618 Z0.00753333 E0.110707
G1 X0.0481394 Y-0.765154 Z0.0076 E0.111706
G1 X0.0842035 Y-0.801143 Z0.00766667 E0.112725
G1 X0.123359 Y-0.835386 Z0.00773333 E0.113765
G1 X0.16552 Y-0.867687 Z0.0078 E0.114827
G1 X0.21059 Y-0.897856 Z0.00786667 E0.115912
G1 X0.258462 Y-0.925706 Z0.00793333 E0.11702
G1 X0.309017 Y-0.951057 Z0.008 E0.118151
G1 X0.335016 Y-0.900832 Z0.00806667 E0.119282
G1 X0.357375 Y-0.850163 Z0.00813333 E0.12039
G1 X0.376105 Y-0.799264 Z0.0082 E0.121474
G1 X0.391228 Y-0.74835 Z0.00826667 E0.122536
G1 X0.402778 Y-0.697632 Z0.00833333 E0.123577
G1 X0.410801 Y-0.647318 Z0.0084 E0.124596
G1 X0.415353 Y-0.597614 Z0.00846667 E0.125594
G1 X0.416502 Y-0.548721 Z0.00853333 E0.126572
G1 X0.414326 Y-0.500834 Z0.0086 E0.127531
G1 X0.408913 Y-0.454144 Z0.00866667 E0.128471
G1 X0.400363 Y-0.408837 Z0.00873333 E0.129393
G1 X0.388783 Y-0.365092 Z0.0088 E0.130298
G1 X0.374292 Y-0.32308 Z0.00886667 E0.131187
G1 X0.357016 Y-0.282967 Z0.00893333 E0.13206
G1 X0.33709 Y-0.244911 Z0.009 E0.13292
G1 X0.379442 Y-0.252101 Z0.00906667 E0.133779
G1 X0.42293 Y-0.256136 Z0.00913333 E0.134652
G1 X0.467364 Y-0.256935 Z0.0092 E0.135541
G1 X0.512546 Y-0.25443 Z0.00926667 E0.136446
G1 X0.558278 Y-0.248561 Z0.00933333 E0.137368
G1 X0.604355 Y-0.239281 Z0.0094 E0.138308
G1 X0.65057 Y-0.226553 Z0.00946667 E0.139267
G1 X0.696716 Y-0.210351 Z0.00953333 E0.140245
G1 X0.74258 Y-0.190662 Z0.0096 E0.141243
G1 X0.787952 Y-0.167484 Z0.00966667 E0.142262
G1 X0.832619 Y-0.140827 Z0.00973333 E0.143303
G1 X0.876368 Y-0.110711 Z0.0098 E0.144365
G1 X0.918988 Y-0.0771696 Z0.00986667 E0.14545
G1 X0.960268 Y-0.0402472 Z0.00993333 E0.146557
G1 X1 Y-1.83764e-17 Z0.01 E0.147688
G1 X0.961173 Y0.0398299 Z0.0100667 E0.148801
G1 X0.920793 Y0.0764117 Z0.0101333 E0.149891
G1 X0.879064 Y0.109689 Z0.0102 E0.150958
G1 X0.836191 Y0.139619 Z0.0102667 E0.152004
G1 X0.792382 Y0.166166 Z0.0103333 E0.153028
G1 X0.747844 Y0.189311 Z0.0104 E0.154032
G1 X0.702786 Y0.209042 Z0.0104667 E0.155016
G1 X0.657413 Y0.225361 Z0.0105333 E0.15598
G1 X0.611934 Y0.238281 Z0.0106 E0.156926
G1 X0.566552 Y0.247824 Z0.0106667 E0.157853
G1 X0.52147 Y0.254027 Z0.0107333 E0.158764
G1 X0.476888 Y0.256935 Z0.0108 E0.159657
G1 X0.433002 Y0.256605 Z0.0108667 E0.160535
G1 X0.390004 Y0.253103 Z0.0109333 E0.161398
G1 X0.348082 Y0.246508 Z0.011 E0.162246
G1 X0.366954 Y0.284093 Z0.0110667 E0.163088
G1 X0.383205 Y0.323672 Z0.0111333 E0.163943
G1 X0.396706 Y0.365092 Z0.0112 E0.164815
G1 X0.407334 Y0.40819 Z0.0112667 E0.165702
G1 X0.414974 Y0.452798 Z0.0113333 E0.166607
G1 X0.419522 Y0.49874 Z0.0114 E0.167531
G1 X0.420883 Y0.545835 Z0.0114667 E0.168473
G1 X0.418971 Y0.593895 Z0.0115333 E0.169435
G1 X0.413712 Y0.64273 Z0.0116 E0.170417
G1 X0.405042 Y0.692141 Z0.0116667 E0.171421
G1 X0.392906 Y0.741928 Z0.0117333 E0.172446
G1 X0.377262 Y0.791888 Z0.0118 E0.173493
G1 X0.358077 Y0.841813 Z0.0118667 E0.174562
G1 X0.335332 Y0.891494 Z0.0119333 E0.175655
G1 X0.309017 Y0.940719 Z0.012 E0.176772
G1 X0.258705 Y0.91611 Z0.0120667 E0.177892
G1 X0.211004 Y0.889038 Z0.0121333 E0.178989
G1 X0.166029 Y0.85968 Z0.0122 E0.180063
G1 X0.123888 Y0.828217 Z0.0122667 E0.181115
G1 X0.0846769 Y0.794837 Z0.0123333 E0.182145
G1 X0.0484806 Y0.75973 Z0.0124 E0.183153
G1 X0.0153742 Y0.72309 Z0.0124667 E0.184141
G1 X-0.0145787 Y0.685116 Z0.0125333 E0.185108
G1 X-0.0413257 Y0.646005 Z0.0126 E0.186056
G1 X-0.0648253 Y0.605962 Z0.0126667 E0.186984
G1 X-0.0850474 Y0.565188 Z0.0127333 E0.187894
G1 X-0.101973 Y0.523887 Z0.0128 E0.188787
G1 X-0.115596 Y0.482263 Z0.0128667 E0.189663
G1 X-0.125918 Y0.440519 Z0.0129333 E0.190523
G1 X-0.132955 Y0.398858 Z0.013 E0.191368
G1 X-0.163214 Y0.428682 Z0.0130667 E0.192218
G1 X-0.196168 Y0.456645 Z0.0131333 E0.193082
G1 X-0.23171 Y0.482574 Z0.0132 E0.193962
G1 X-0.269724 Y0.506303 Z0.0132667 E0.194858
G1 X-0.310084 Y0.527669 Z0.0133333 E0.195772
G1 X-0.352655 Y0.546519 Z0.0134 E0.196703
G1 X-0.397294 Y0.562706 Z0.0134667 E0.197653
G1 X-0.443847 Y0.576089 Z0.0135333 E0.198621
G1 X-0.492156 Y0.586539 Z0.0136 E0.19961
G1 X-0.542052 Y0.593933 Z0.0136667 E0.200619
G1 X-0.593362 Y0.598155 Z0.0137333 E0.201648
G1 X-0.645903 Y0.599103 Z0.0138 E0.202699
G1 X-0.699489 Y0.596681 Z0.0138667 E0.203772
G1 X-0.753926 Y0.590803 Z0.0139333 E0.204867
G1 X-0.809017 Y0.581397 Z0.014 E0.205985
G1 X-0.801284 Y0.526357 Z0.0140667 E0.207097
G1 X-0.790385 Y0.473044 Z0.0141333 E0.208185
G1 X-0.776452 Y0.421622 Z0.0142 E0.20925
G1 X-0.759624 Y0.372248 Z0.0142667 E0.210294
G1 X-0.740049 Y0.32507 Z0.0143333 E0.211315
G1 X-0.717882 Y0.280228 Z0.0144 E0.212316
G1 X-0.693284 Y0.237852 Z0.0144667 E0.213296
G1 X-0.666424 Y0.198064 Z0.0145333 E0.214256
G1 X-0.637475 Y0.160973 Z0.0146 E0.215197
G1 X-0.606616 Y0.126681 Z0.0146667 E0.216119
G1 X-0.574033 Y0.0952777 Z0.0147333 E0.217024
G1 X-0.539911 Y0.0668444 Z0.0148 E0.217913
G1 X-0.504444 Y0.0414498 Z0.0148667 E0.218785
G1 X-0.467825 Y0.0191525 Z0.0149333 E0.219643
G1 X-0.430253 Y3.29833e-17 Z0.015 E0.220486
G1 X-0.467825 Y-0.0191525 Z0.0150667 E0.22133
G1 X-0.504444 Y-0.0414498 Z0.0151333 E0.222187
G1 X-0.539911 Y-0.0668444 Z0.0152 E0.223059
G1 X-0.574033 Y-0.0952777 Z0.0152667 E0.223948
G1 X-0.606616 Y-0.126681 Z0.0153333 E0.224853
G1 X-0.637475 Y-0.160973 Z0.0154 E0.225775
G1 X-0.666424 Y-0.198064 Z0.0154667 E0.226716
G1 X-0.693284 Y-0.237852 Z0.0155333 E0.227677
G1 X-0.717882 Y-0.280228 Z0.0156 E0.228657
G1 X-0.740049 Y-0.32507 Z0.0156667 E0.229657
G1 X-0.759624 Y-0.372248 Z0.0157333 E0.230679
G1 X-0.776452 Y-0.421622 Z0.0158 E0.231722
G1 X-0.790385 Y-0.473044 Z0.0158667 E0.232787
G1 X-0.801284 Y-0.526357 Z0.0159333 E0.233876
G1 X-0.809017 Y-0.581397 Z0.016 E0.234987
G1 X-0.753926 Y-0.590803 Z0.0160667 E0.236105
G1 X-0.699489 Y-0.596681 Z0.0161333 E0.2372
G1 X-0.645903 Y-0.599103 Z0.0162 E0.238273
G1 X-0.593362 Y-0.598155 Z0.0162667 E0.239324
G1 X-0.542052 Y-0.593933 Z0.0163333 E0.240354
G1 X-0.492156 Y-0.586539 Z0.0164 E0.241362
G1 X-0.443847 Y-0.576089 Z0.0164667 E0.242351
G1 X-0.397294 Y-0.562706 Z0.0165333 E0.24332
G1 X-0.352655 Y-0.546519 Z0.0166 E0.244269
G1 X-0.310084 Y-0.527669 Z0.0166667 E0.245201
G1 X-0.269724 Y-0.506303 Z0.0167333 E0.246114
G1 X-0.23171 Y-0.482574 Z0.0168 E0.24701
G1 X-0.196168 Y-0.456645 Z0.0168667 E0.24789
G1 X-0.163214 Y-0.428682 Z0.0169333 E0.248754
G1 X-0.132955 Y-0.398858 Z0.017 E0.249604
G1 X-0.125918 Y-0.440519 Z0.0170667 E0.250449
G1 X-0.115596 Y-0.482263 Z0.0171333 E0.251309
G1 X-0.101973 Y-0.523887 Z0.0172 E0.252185
G1 X-0.0850474 Y-0.565188 Z0.0172667 E0.253078
G1 X-0.0648253 Y-0.605962 Z0.0173333 E0.253988
G1 X-0.0413257 Y-0.646005 Z0.0174 E0.254917
G1 X-0.0145787 Y-0.685116 Z0.0174667 E0.255864
G1 X0.0153742 Y-0.72309 Z0.0175333 E0.256832
G1 X0.0484806 Y-0.75973 Z0.0176 E0.257819
G1 X0.0846769 Y-0.794837 Z0.0176667 E0.258828
G1 X0.123888 Y-0.828217 Z0.0177333 E0.259858
G1 X0.166029 Y-0.85968 Z0.0178 E0.260909
G1 X0.211004 Y-0.889038 Z0.0178667 E0.261984
G1 X0.258705 Y-0.91611 Z0.0179333 E0.263081
G1 X0.309017 Y-0.940719 Z0.018 E0.264201
G1 X0.335332 Y-0.891494 Z0.0180667 E0.265317
G1 X0.358077 Y-0.841813 Z0.0181333 E0.26641
G1 X0.377262 Y-0.791888 Z0.0182 E0.26748
G1 X0.392906 Y-0.741928 Z0.0182667 E0.268527
G1 X0.405042 Y-0.692141 Z0.0183333 E0.269552
G1 X0.413712 Y-0.64273 Z0.0184 E0.270555
G1 X0.418971 Y-0.593895 Z0.0184667 E0.271537
G1 X0.420883 Y-0.545835 Z0.0185333 E0.272499
G1 X0.419522 Y-0.49874 Z0.0186 E0.273441
G1 X0.414974 Y-0.452798 Z0.0186667 E0.274365
G1 X0.407334 Y-0.40819 Z0.0187333 E0.27527
G1 X0.396706 Y-0.365092 Z0.0188 E0.276158
G1 X0.383205 Y-0.323672 Z0.0188667 E0.277029
G1 X0.366954 Y-0.284093 Z0.0189333 E0.277885
G1 X0.348082 Y-0.246508 Z0.019 E0.278726
G1 X0.390004 Y-0.253103 Z0.0190667 E0.279575
G1 X0.433002 Y-0.256605 Z0.0191333 E0.280437
G1 X0.476888 Y-0.256935 Z0.0192 E0.281315
G1 X0.52147 Y-0.254027 Z0.0192667 E0.282209
G1 X0.566552 Y-0.247824 Z0.0193333 E0.283119
G1 X0.611934 Y-0.238281 Z0.0194 E0.284046
G1 X0.657413 Y-0.225361 Z0.0194667 E0.284992
G1 X0.702786 Y-0.209042 Z0.0195333 E0.285956
G1 X0.747844 Y-0.189311 Z0.0196 E0.28694
G1 X0.792382 Y-0.166166 Z0.0196667 E0.287944
G1 X0.836191 Y-0.139619 Z0.0197333 E0.288968
G1 X0.879064 Y-0.109689 Z0.0198 E0.290014
G1 X0.920793 Y-0.0764117 Z0.0198667 E0.291082
G1 X0.961173 Y-0.0398299 Z0.0199333 E0.292171
G1 X1 Y-1.61361e-17 Z0.02 E0.293284
G1 X0.963654 Y0.038686 Z0.0200667 E0.294345
G1 X0.925743 Y0.0743335 Z0.0201333 E0.295386
G1 X0.886456 Y0.106888 Z0.0202 E0.296407
G1 X0.845986 Y0.136305 Z0.0202667 E0.297407
G1 X0.804528 Y0.162552 Z0.0203333 E0.298389
G1 X0.762277 Y0.185605 Z0.0204 E0.299351
G1 X0.719428 Y0.205453 Z0.0204667 E0.300296
G1 X0.676176 Y0.222094 Z0.0205333 E0.301223
G1 X0.632716 Y0.235538 Z0.0206 E0.302132
G1 X0.58924 Y0.245804 Z0.0206667 E0.303026
G1 X0.54594 Y0.252923 Z0.0207333 E0.303903
G1 X0.503004 Y0.256935 Z0.0208 E0.304766
G1 X0.460618 Y0.257891 Z0.0208667 E0.305614
G1 X0.418964 Y0.255852 Z0.0209333 E0.306448
G1 X0.37822 Y0.250887 Z0.021 E0.307269
G1 X0.394202 Y0.287178 Z0.0210667 E0.308062
G1 X0.407646 Y0.325295 Z0.0211333 E0.30887
G1 X0.418431 Y0.365092 Z0.0212 E0.309695
G1 X0.426448 Y0.406416 Z0.0212667 E0.310537
G1 X0.431592 Y0.449107 Z0.0213333 E0.311397
G1 X0.433769 Y0.492999 Z0.0214 E0.312276
G1 X0.432895 Y0.537922 Z0.0214667 E0.313174
G1 X0.428893 Y0.583699 Z0.0215333 E0.314093
G1 X0.421697 Y0.630148 Z0.0216 E0.315033
G1 X0.411251 Y0.677085 Z0.0216667 E0.315995
G1 X0.397509 Y0.724321 Z0.0217333 E0.316979
G1 X0.380434 Y0.771664 Z0.0218 E0.317986
G1 X0.360002 Y0.818918 Z0.0218667 E0.319015
G1 X0.336198 Y0.865888 Z0.0219333 E0.320068
G1 X0.309017 Y0.912376 Z0.022 E0.321145
G1 X0.259373 Y0.889798 Z0.0220667 E0.322236
G1 X0.212138 Y0.864859 Z0.0221333 E0.323304
G1 X0.167425 Y0.837724 Z0.0222 E0.324351
G1 X0.125339 Y0.808562 Z0.0222667 E0.325375
G1 X0.0859749 Y0.777548 Z0.0223333 E0.326377
G1 X0.0494163 Y0.744858 Z0.0224 E0.327358
G1 X0.0157383 Y0.710676 Z0.0224667 E0.328317
G1 X-0.0149948 Y0.675184 Z0.0225333 E0.329256
G1 X-0.0427292 Y0.63857 Z0.0226 E0.330175
G1 X-0.0674213 Y0.601022 Z0.0226667 E0.331074
G1 X-0.0890382 Y0.562731 Z0.0227333 E0.331953
G1 X-0.107558 Y0.523887 Z0.0228 E0.332814
G1 X-0.122968 Y0.48468 Z0.0228667 E0.333656
G1 X-0.135268 Y0.445303 Z0.0229333 E0.334482
G1 X-0.144467 Y0.405944 Z0.023 E0.33529
G1 X-0.175334 Y0.433337 Z0.0230667 E0.336115
G1 X-0.208679 Y0.458935 Z0.0231333 E0.336956
G1 X-0.244399 Y0.482574 Z0.0232 E0.337813
G1 X-0.282381 Y0.504102 Z0.0232667 E0.338686
G1 X-0.322502 Y0.523367 Z0.0233333 E0.339576
G1 X-0.364632 Y0.540228 Z0.0234 E0.340484
G1 X-0.408633 Y0.554548 Z0.0234667 E0.341409
G1 X-0.454358 Y0.566199 Z0.0235333 E0.342353
G1 X-0.501654 Y0.575058 Z0.0236 E0.343315
G1 X-0.550361 Y0.581013 Z0.0236667 E0.344297
G1 X-0.600312 Y0.58396 Z0.0237333 E0.345297
G1 X-0.651334 Y0.583802 Z0.0238 E0.346318
G1 X-0.703249 Y0.580453 Z0.0238667 E0.347358
G1 X-0.755873 Y0.573834 Z0.0239333 E0.348419
G1 X-0.809017 Y0.563879 Z0.024 E0.3495
G1 X-0.803353 Y0.511239 Z0.0240667 E0.350559
G1 X-0.794634 Y0.460179 Z0.0241333 E0.351595
G1 X-0.782981 Y0.410854 Z0.0242 E0.352609
G1 X-0.768522 Y0.363414 Z0.0242667 E0.353601
G1 X-0.751393 Y0.317999 Z0.0243333 E0.354572
G1 X-0.731736 Y0.274743 Z0.0244 E0.355522
G1 X-0.709701 Y0.233769 Z0.0244667 E0.356452
G1 X-0.685444 Y0.195192 Z0.0245333 E0.357364
G1 X-0.659124 Y0.15912 Z0.0246 E0.358257
G1 X-0.630909 Y0.125648 Z0.0246667 E0.359132
G1 X-0.600969 Y0.0948636 Z0.0247333 E0.359991
G1 X-0.569478 Y0.0668444 Z0.0248 E0.360834
G1 X-0.536616 Y0.0416577 Z0.0248667 E0.361662
G1 X-0.502564 Y0.0193605 Z0.0249333 E0.362476
G1 X-0.467506 Y3.6136e-17 Z0.025 E0.363277
G1 X-0.502564 Y-0.0193605 Z0.0250667 E0.364078
G1 X-0.536616 Y-0.0416577 Z0.0251333 E0.364892
G1 X-0.569478 Y-0.0668444 Z0.0252 E0.36572
G1 X-0.600969 Y-0.0948636 Z0.0252667 E0.366563
G1 X-0.630909 Y-0.125648 Z0.0253333 E0.367422
G1 X-0.659124 Y-0.15912 Z0.0254 E0.368298
G1 X-0.685444 Y-0.195192 Z0.0254667 E0.369191
G1 X-0.709701 Y-0.233769 Z0.0255333 E0.370102
G1 X-0.731736 Y-0.274743 Z0.0256 E0.371033
G1 X-0.751393 Y-0.317999 Z0.0256667 E0.371983
G1 X-0.768522 Y-0.363414 Z0.0257333 E0.372954
G1 X-0.782981 Y-0.410854 Z0.0258 E0.373946
G1 X-0.794634 Y-0.460179 Z0.0258667 E0.374959
G1 X-0.803353 Y-0.511239 Z0.0259333 E0.375995
G1 X-0.809017 Y-0.563879 Z0.026 E0.377054
G1 X-0.755873 Y-0.573834 Z0.0260667 E0.378136
G1 X-0.703249 Y-0.580453 Z0.0261333 E0.379196
G1 X-0.651334 Y-0.583802 Z0.0262 E0.380237
G1 X-0.600312 Y-0.58396 Z0.0262667 E0.381257
G1 X-0.550361 Y-0.581013 Z0.0263333 E0.382258
G1 X-0.501654 Y-0.575058 Z0.0264 E0.383239
G1 X-0.454358 Y-0.566199 Z0.0264667 E0.384202
G1 X-0.408633 Y-0.554548 Z0.0265333 E0.385145
G1 X-0.364632 Y-0.540228 Z0.0266 E0.386071
G1 X-0.322502 Y-0.523367 Z0.0266667 E0.386979
G1 X-0.282381 Y-0.504102 Z0.0267333 E0.387869
G1 X-0.244399 Y-0.482574 Z0.0268 E0.388742
G1 X-0.208679 Y-0.458935 Z0.0268667 E0.389599
G1 X-0.175334 Y-0.433337 Z0.0269333 E0.390439
G1 X-0.144467 Y-0.405944 Z0.027 E0.391265
G1 X-0.135268 Y-0.445303 Z0.0270667 E0.392073
G1 X-0.122968 Y-0.48468 Z0.0271333 E0.392898
G1 X-0.107558 Y-0.523887 Z0.0272 E0.393741
G1 X-0.0890382 Y-0.562731 Z0.0272667 E0.394601
G1 X-0.0674213 Y-0.601022 Z0.0273333 E0.395481
G1 X-0.0427292 Y-0.63857 Z0.0274 E0.39638
G1 X-0.0149948 Y-0.675184 Z0.0274667 E0.397298
G1 X0.0157383 Y-0.710676 Z0.0275333 E0.398237
G1 X0.0494163 Y-0.744858 Z0.0276 E0.399197
G1 X0.0859749 Y-0.777548 Z0.0276667 E0.400178
G1 X0.125339 Y-0.808562 Z0.0277333 E0.40118
G1 X0.167425 Y-0.837724 Z0.0278 E0.402204
G1 X0.212138 Y-0.864859 Z0.0278667 E0.40325
G1 X0.259373 Y-0.889798 Z0.0279333 E0.404318
G1 X0.309017 Y-0.912376 Z0.028 E0.405409
G1 X0.336198 Y-0.865888 Z0.0280667 E0.406486
G1 X0.360002 Y-0.818918 Z0.0281333 E0.407539
G1 X0.380434 Y-0.771664 Z0.0282 E0.408569
G1 X0.397509 Y-0.724321 Z0.0282667 E0.409575
G1 X0.411251 Y-0.677085 Z0.0283333 E0.410559
G1 X0.421697 Y-0.630148 Z0.0284 E0.411521
G1 X0.428893 Y-0.583699 Z0.0284667 E0.412461
G1 X0.432895 Y-0.537922 Z0.0285333 E0.41338
G1 X0.433769 Y-0.492999 Z0.0286 E0.414279
G1 X0.431592 Y-0.449107 Z0.0286667 E0.415158
G1 X0.426448 Y-0.406416 Z0.0287333 E0.416018
G1 X0.418431 Y-0.365092 Z0.0288 E0.41686
G1 X0.407646 Y-0.325295 Z0.0288667 E0.417684
G1 X0.394202 Y-0.287178 Z0.0289333 E0.418493
G1 X0.37822 Y-0.250887 Z0.029 E0.419286
G1 X0.418964 Y-0.255852 Z0.0290667 E0.420107
G1 X0.460618 Y-0.257891 Z0.0291333 E0.420941
G1 X0.503004 Y-0.256935 Z0.0292 E0.421789
G1 X0.54594 Y-0.252923 Z0.0292667 E0.422651
G1 X0.58924 Y-0.245804 Z0.0293333 E0.423529
G1 X0.632716 Y-0.235538 Z0.0294 E0.424422
G1 X0.676176 Y-0.222094 Z0.0294667 E0.425332
G1 X0.719428 Y-0.205453 Z0.0295333 E0.426259
G1 X0.762277 Y-0.185605 Z0.0296 E0.427203
G1 X0.804528 Y-0.162552 Z0.0296667 E0.428166
G1 X0.845986 Y-0.136305 Z0.0297333 E0.429147
G1 X0.886456 Y-0.106888 Z0.0298 E0.430148
G1 X0.925743 Y-0.0743335 Z0.0298667 E0.431168
G1 X0.963654 Y-0.038686 Z0.0299333 E0.432209
G1 X1 Y-1.27889e-17 Z0.03 E0.433271
G1 X0.967362 Y0.0369767 Z0.0300667 E0.434257
G1 X0.933138 Y0.0712285 Z0.0301333 E0.435226
G1 X0.8975 Y0.102702 Z0.0302 E0.436177
G1 X0.860621 Y0.131355 Z0.0302667 E0.437111
G1 X0.822676 Y0.157151 Z0.0303333 E0.438028
G1 X0.783842 Y0.180068 Z0.0304 E0.43893
G1 X0.744294 Y0.20009 Z0.0304667 E0.439817
G1 X0.70421 Y0.217213 Z0.0305333 E0.440688
G1 X0.663767 Y0.23144 Z0.0306 E0.441546
G1 X0.623139 Y0.242786 Z0.0306667 E0.442389
G1 X0.582501 Y0.251273 Z0.0307333 E0.44322
G1 X0.542024 Y0.256935 Z0.0308 E0.444037
G1 X0.501879 Y0.259814 Z0.0308667 E0.444842
G1 X0.462233 Y0.259959 Z0.0309333 E0.445635
G1 X0.42325 Y0.25743 Z0.031 E0.446416
G1 X0.434914 Y0.291788 Z0.0310667 E0.447142
G1 X0.444162 Y0.327719 Z0.0311333 E0.447884
G1 X0.450891 Y0.365092 Z0.0312 E0.448644
G1 X0.455006 Y0.403764 Z0.0312667 E0.449421
G1 X0.456421 Y0.443592 Z0.0313333 E0.450218
G1 X0.455057 Y0.484422 Z0.0314 E0.451036
G1 X0.450842 Y0.526099 Z0.0314667 E0.451873
G1 X0.443717 Y0.568464 Z0.0315333 E0.452733
G1 X0.433627 Y0.61135 Z0.0316 E0.453614
G1 X0.420528 Y0.654591 Z0.0316667 E0.454517
G1 X0.404385 Y0.698014 Z0.0317333 E0.455444
G1 X0.385174 Y0.741446 Z0.0318 E0.456394
G1 X0.362878 Y0.784711 Z0.0318667 E0.457367
G1 X0.337491 Y0.827631 Z0.0319333 E0.458364
G1 X0.309017 Y0.870027 Z0.032 E0.459386
G1 X0.260371 Y0.850484 Z0.0320667 E0.460434
G1 X0.213833 Y0.828733 Z0.0321333 E0.461462
G1 X0.169511 Y0.80492 Z0.0322 E0.462468
G1 X0.127508 Y0.779195 Z0.0322667 E0.463453
G1 X0.0879142 Y0.751715 Z0.0323333 E0.464417
G1 X0.0508142 Y0.722638 Z0.0324 E0.46536
G1 X0.0162823 Y0.692126 Z0.0324667 E0.466281
G1 X-0.0156165 Y0.660344 Z0.0325333 E0.467182
G1 X-0.0448261 Y0.62746 Z0.0326 E0.468062
G1 X-0.0712999 Y0.593641 Z0.0326667 E0.468921
G1 X-0.0950009 Y0.55906 Z0.0327333 E0.469759
G1 X-0.115901 Y0.523887 Z0.0328 E0.470577
G1 X-0.133983 Y0.488293 Z0.0328667 E0.471376
G1 X-0.149238 Y0.452451 Z0.0329333 E0.472155
G1 X-0.161667 Y0.416531 Z0.033 E0.472915
G1 X-0.193442 Y0.440293 Z0.0330667 E0.473709
G1 X-0.227372 Y0.462355 Z0.0331333 E0.474518
G1 X-0.263358 Y0.482574 Z0.0332 E0.475344
G1 X-0.301291 Y0.500813 Z0.0332667 E0.476185
G1 X-0.341055 Y0.51694 Z0.0333333 E0.477044
G1 X-0.382526 Y0.530829 Z0.0334 E0.477918
G1 X-0.425574 Y0.54236 Z0.0334667 E0.47881
G1 X-0.470062 Y0.55142 Z0.0335333 E0.479718
G1 X-0.515846 Y0.557903 Z0.0336 E0.480642
G1 X-0.562776 Y0.561711 Z0.0336667 E0.481584
G1 X-0.610697 Y0.562751 Z0.0337333 E0.482543
G1 X-0.659449 Y0.560941 Z0.0338 E0.483519
G1 X-0.708867 Y0.556207 Z0.0338667 E0.484511
G1 X-0.758781 Y0.548481 Z0.0339333 E0.485522
G1 X-0.809017 Y0.537706 Z0.034 E0.486549
G1 X-0.806444 Y0.488651 Z0.0340667 E0.487532
G1 X-0.800982 Y0.440956 Z0.0341333 E0.488492
G1 X-0.792736 Y0.394765 Z0.0342 E0.48943
G1 X-0.781817 Y0.350215 Z0.0342667 E0.490348
G1 X-0.768342 Y0.307434 Z0.0343333 E0.491245
G1 X-0.752437 Y0.266547 Z0.0344 E0.492122
G1 X-0.734231 Y0.227667 Z0.0344667 E0.492981
G1 X-0.713862 Y0.190902 Z0.0345333 E0.493821
G1 X-0.691471 Y0.156351 Z0.0346 E0.494645
G1 X-0.667205 Y0.124105 Z0.0346667 E0.495452
G1 X-0.641214 Y0.0942447 Z0.0347333 E0.496244
G1 X-0.613655 Y0.0668444 Z0.0348 E0.497021
G1 X-0.584686 Y0.0419682 Z0.0348667 E0.497785
G1 X-0.554468 Y0.0196713 Z0.0349333 E0.498536
G1 X-0.523166 Y4.08465e-17 Z0.035 E0.499275
G1 X-0.554468 Y-0.0196713 Z0.0350667 E0.500014
G1 X-0.584686 Y-0.0419682 Z0.0351333 E0.500765
G1 X-0.613655 Y-0.0668444 Z0.0352 E0.501529
G1 X-0.641214 Y-0.0942447 Z0.0352667 E0.502306
G1 X-0.667205 Y-0.124105 Z0.0353333 E0.503098
G1 X-0.691471 Y-0.156351 Z0.0354 E0.503905
G1 X-0.713862 Y-0.190902 Z0.0354667 E0.504729
G1 X-0.734231 Y-0.227667 Z0.0355333 E0.505569
G1 X-0.752437 Y-0.266547 Z0.0356 E0.506428
G1 X-0.768342 Y-0.307434 Z0.0356667 E0.507305
G1 X-0.781817 Y-0.350215 Z0.0357333 E0.508202
G1 X-0.792736 Y-0.394765 Z0.0358 E0.50912
G1 X-0.800982 Y-0.440956 Z0.0358667 E0.510058
G1 X-0.806444 Y-0.488651 Z0.0359333 E0.511018
G1 X-0.809017 Y-0.537706 Z0.036 E0.512001
G1 X-0.758781 Y-0.548481 Z0.0360667 E0.513028
G1 X-0.708867 Y-0.556207 Z0.0361333 E0.514039
G1 X-0.659449 Y-0.560941 Z0.0362 E0.515031
G1 X-0.610697 Y-0.562751 Z0.0362667 E0.516007
G1 X-0.562776 Y-0.561711 Z0.0363333 E0.516966
G1 X-0.515846 Y-0.557903 Z0.0364 E0.517908
G1 X-0.470062 Y-0.55142 Z0.0364667 E0.518832
G1 X-0.425574 Y-0.54236 Z0.0365333 E0.51974
G1 X-0.382526 Y-0.530829 Z0.0366 E0.520632
G1 X-0.341055 Y-0.51694 Z0.0366667 E0.521506
G1 X-0.301291 Y-0.500813 Z0.0367333 E0.522365
G1 X-0.263358 Y-0.482574 Z0.0368 E0.523206
G1 X-0.227372 Y-0.462355 Z0.0368667 E0.524032
G1 X-0.193442 Y-0.440293 Z0.0369333 E0.524841
G1 X-0.161667 Y-0.416531 Z0.037 E0.525635
G1 X-0.149238 Y-0.452451 Z0.0370667 E0.526395
G1 X-0.133983 Y-0.488293 Z0.0371333 E0.527174
G1 X-0.115901 Y-0.523887 Z0.0372 E0.527973
G1 X-0.0950009 Y-0.55906 Z0.0372667 E0.528791
G1 X-0.0712999 Y-0.593641 Z0.0373333 E0.529629
G1 X-0.0448261 Y-0.62746 Z0.0374 E0.530488
G1 X-0.0156165 Y-0.660344 Z0.0374667 E0.531368
G1 X0.0162823 Y-0.692126 Z0.0375333 E0.532269
G1 X0.0508142 Y-0.722638 Z0.0376 E0.53319
G1 X0.0879142 Y-0.751715 Z0.0376667 E0.534133
G1 X0.127508 Y-0.779195 Z0.0377333 E0.535097
G1 X0.169511 Y-0.80492 Z0.0378 E0.536082
G1 X0.213833 Y-0.828733 Z0.0378667 E0.537088
G1 X0.260371 Y-0.850484 Z0.0379333 E0.538116
G1 X0.309017 Y-0.870027 Z0.038 E0.539164
G1 X0.337491 Y-0.827631 Z0.0380667 E0.540186
G1 X0.362878 Y-0.784711 Z0.0381333 E0.541183
G1 X0.385174 Y-0.741446 Z0.0382 E0.542156
G1 X0.404385 Y-0.698014 Z0.0382667 E0.543106
G1 X0.420528 Y-0.654591 Z0.0383333 E0.544033
G1 X0.433627 Y-0.61135 Z0.0384 E0.544936
G1 X0.443717 Y-0.568464 Z0.0384667 E0.545817
G1 X0.450842 Y-0.526099 Z0.0385333 E0.546677
G1 X0.455057 Y-0.484422 Z0.0386 E0.547514
G1 X0.456421 Y-0.443592 Z0.0386667 E0.548332
G1 X0.455006 Y-0.403764 Z0.0387333 E0.549129
G1 X0.450891 Y-0.365092 Z0.0388 E0.549906
G1 X0.444162 Y-0.327719 Z0.0388667 E0.550666
G1 X0.434914 Y-0.291788 Z0.0389333 E0.551408
G1 X0.42325 Y-0.25743 Z0.039 E0.552134
G1 X0.462233 Y-0.259959 Z0.0390667 E0.552915
G1 X0.501879 Y-0.259814 Z0.0391333 E0.553708
G1 X0.542024 Y-0.256935 Z0.0392 E0.554513
G1 X0.582501 Y-0.251273 Z0.0392667 E0.55533
G1 X0.623139 Y-0.242786 Z0.0393333 E0.556161
G1 X0.663767 Y-0.23144 Z0.0394 E0.557004
G1 X0.70421 Y-0.217213 Z0.0394667 E0.557862
G1 X0.744294 Y-0.20009 Z0.0395333 E0.558733
G1 X0.783842 Y-0.180068 Z0.0396 E0.55962
G1 X0.822676 Y-0.157151 Z0.0396667 E0.560522
G1 X0.860621 Y-0.131355 Z0.0397333 E0.561439
G1 X0.8975 Y-0.102702 Z0.0398 E0.562373
G1 X0.933138 Y-0.0712285 Z0.0398667 E0.563324
G1 X0.967362 Y-0.0369767 Z0.0399333 E0.564293
G1 X1 Y-8.65108e-18 Z0.04 E0.565279
G1 X0.971945 Y0.0348637 Z0.0400667 E0.566174
G1 X0.94228 Y0.06739 Z0.0401333 E0.567055
G1 X0.911153 Y0.097528 Z0.0402 E0.567921
G1 X0.878713 Y0.125235 Z0.0402667 E0.568774
G1 X0.845111 Y0.150475 Z0.0403333 E0.569615
G1 X0.8105 Y0.173223 Z0.0404 E0.570443
G1 X0.775034 Y0.193461 Z0.0404667 E0.57126
G1 X0.738867 Y0.211179 Z0.0405333 E0.572065
G1 X0.702152 Y0.226374 Z0.0406 E0.57286
G1 X0.665045 Y0.239054 Z0.0406667 E0.573644
G1 X0.627697 Y0.249234 Z0.0407333 E0.574419
G1 X0.590262 Y0.256935 Z0.0408 E0.575183
G1 X0.552888 Y0.26219 Z0.0408667 E0.575938
G1 X0.515724 Y0.265036 Z0.0409333 E0.576683
G1 X0.478917 Y0.265519 Z0.041 E0.57742
G1 X0.485244 Y0.297486 Z0.0410667 E0.578071
G1 X0.489304 Y0.330717 Z0.0411333 E0.578741
G1 X0.491018 Y0.365092 Z0.0412 E0.579429
G1 X0.49031 Y0.400487 Z0.0412667 E0.580137
G1 X0.487115 Y0.436774 Z0.0413333 E0.580866
G1 X0.481372 Y0.473818 Z0.0414 E0.581616
G1 X0.47303 Y0.511484 Z0.0414667 E0.582387
G1 X0.462043 Y0.54963 Z0.0415333 E0.583181
G1 X0.448374 Y0.588112 Z0.0416 E0.583998
G1 X0.431996 Y0.626782 Z0.0416667 E0.584838
G1 X0.412886 Y0.665492 Z0.0417333 E0.585701
G1 X0.391033 Y0.704091 Z0.0418 E0.586588
G1 X0.366433 Y0.742423 Z0.0418667 E0.587499
G1 X0.33909 Y0.780337 Z0.0419333 E0.588434
G1 X0.309017 Y0.817675 Z0.042 E0.589393
G1 X0.261605 Y0.801884 Z0.0420667 E0.590392
G1 X0.215928 Y0.784073 Z0.0421333 E0.591373
G1 X0.17209 Y0.764366 Z0.0422 E0.592334
G1 X0.130188 Y0.742892 Z0.0422667 E0.593276
G1 X0.0903117 Y0.719781 Z0.0423333 E0.594198
G1 X0.0525424 Y0.695169 Z0.0424 E0.595099
G1 X0.0169547 Y0.669195 Z0.0424667 E0.59598
G1 X-0.0163851 Y0.642 Z0.0425333 E0.596841
G1 X-0.0474184 Y0.613725 Z0.0426 E0.597681
G1 X-0.0760949 Y0.584517 Z0.0426667 E0.598499
G1 X-0.102372 Y0.554522 Z0.0427333 E0.599297
G1 X-0.126216 Y0.523887 Z0.0428 E0.600073
G1 X-0.147601 Y0.492759 Z0.0428667 E0.600828
G1 X-0.166508 Y0.461287 Z0.0429333 E0.601563
G1 X-0.18293 Y0.429619 Z0.043 E0.602276
G1 X-0.215827 Y0.448892 Z0.0430667 E0.603039
G1 X-0.250481 Y0.466584 Z0.0431333 E0.603817
G1 X-0.286796 Y0.482574 Z0.0432 E0.604611
G1 X-0.324669 Y0.496748 Z0.0432667 E0.605419
G1 X-0.363991 Y0.508995 Z0.0433333 E0.606243
G1 X-0.404648 Y0.51921 Z0.0434 E0.607081
G1 X-0.446518 Y0.527293 Z0.0434667 E0.607934
G1 X-0.489476 Y0.533151 Z0.0435333 E0.608801
G1 X-0.53339 Y0.536696 Z0.0436 E0.609683
G1 X-0.578123 Y0.537848 Z0.0436667 E0.610578
G1 X-0.623535 Y0.536531 Z0.0437333 E0.611486
G1 X-0.669481 Y0.53268 Z0.0438 E0.612408
G1 X-0.715812 Y0.526233 Z0.0438667 E0.613344
G1 X-0.762376 Y0.517138 Z0.0439333 E0.614293
G1 X-0.809017 Y0.505351 Z0.044 E0.615255
G1 X-0.810264 Y0.460728 Z0.0440667 E0.616148
G1 X-0.808829 Y0.417194 Z0.0441333 E0.617019
G1 X-0.804795 Y0.374876 Z0.0442 E0.617869
G1 X-0.798252 Y0.333898 Z0.0442667 E0.618699
G1 X-0.789295 Y0.294374 Z0.0443333 E0.619509
G1 X-0.778027 Y0.256415 Z0.0444 E0.620301
G1 X-0.764555 Y0.220124 Z0.0444667 E0.621076
G1 X-0.748993 Y0.185599 Z0.0445333 E0.621833
G1 X-0.731459 Y0.152929 Z0.0446 E0.622575
G1 X-0.712074 Y0.122197 Z0.0446667 E0.623301
G1 X-0.690967 Y0.0934797 Z0.0447333 E0.624014
G1 X-0.668267 Y0.0668444 Z0.0448 E0.624714
G1 X-0.64411 Y0.042352 Z0.0448667 E0.625402
G1 X-0.618632 Y0.0200555 Z0.0449333 E0.626079
G1 X-0.591973 Y4.66696e-17 Z0.045 E0.626746
G1 X-0.618632 Y-0.0200555 Z0.0450667 E0.627414
G1 X-0.64411 Y-0.042352 Z0.0451333 E0.628091
G1 X-0.668267 Y-0.0668444 Z0.0452 E0.628779
G1 X-0.690967 Y-0.0934797 Z0.0452667 E0.629479
G1 X-0.712074 Y-0.122197 Z0.0453333 E0.630191
G1 X-0.731459 Y-0.152929 Z0.0454 E0.630918
G1 X-0.748993 Y-0.185599 Z0.0454667 E0.63166
G1 X-0.764555 Y-0.220124 Z0.0455333 E0.632417
G1 X-0.778027 Y-0.256415 Z0.0456 E0.633191
G1 X-0.789295 Y-0.294374 Z0.0456667 E0.633983
G1 X-0.798252 Y-0.333898 Z0.0457333 E0.634794
G1 X-0.804795 Y-0.374876 Z0.0458 E0.635624
G1 X-0.808829 Y-0.417194 Z0.0458667 E0.636474
G1 X-0.810264 Y-0.460728 Z0.0459333 E0.637345
G1 X-0.809017 Y-0.505351 Z0.046 E0.638238
G1 X-0.762376 Y-0.517138 Z0.0460667 E0.6392
G1 X-0.715812 Y-0.526233 Z0.0461333 E0.640149
G1 X-0.669481 Y-0.53268 Z0.0462 E0.641084
G1 X-0.623535 Y-0.536531 Z0.0462667 E0.642007
G1 X-0.578123 Y-0.537848 Z0.0463333 E0.642915
G1 X-0.53339 Y-0.536696 Z0.0464 E0.64381
G1 X-0.489476 Y-0.533151 Z0.0464667 E0.644691
G1 X-0.446518 Y-0.527293 Z0.0465333 E0.645558
G1 X-0.404648 Y-0.51921 Z0.0466 E0.646411
G1 X-0.363991 Y-0.508995 Z0.0466667 E0.64725
G1 X-0.324669 Y-0.496748 Z0.0467333 E0.648073
G1 X-0.286796 Y-0.482574 Z0.0468 E0.648882
G1 X-0.250481 Y-0.466584 Z0.0468667 E0.649676
G1 X-0.215827 Y-0.448892 Z0.0469333 E0.650454
G1 X-0.18293 Y-0.429619 Z0.047 E0.651216
G1 X-0.166508 Y-0.461287 Z0.0470667 E0.65193
G1 X-0.147601 Y-0.492759 Z0.0471333 E0.652664
G1 X-0.126216 Y-0.523887 Z0.0472 E0.65342
G1 X-0.102372 Y-0.554522 Z0.0472667 E0.654196
G1 X-0.0760949 Y-0.584517 Z0.0473333 E0.654994
G1 X-0.0474184 Y-0.613725 Z0.0474 E0.655812
G1 X-0.0163851 Y-0.642 Z0.0474667 E0.656652
G1 X0.0169547 Y-0.669195 Z0.0475333 E0.657512
G1 X0.0525424 Y-0.695169 Z0.0476 E0.658393
G1 X0.0903117 Y-0.719781 Z0.0476667 E0.659295
G1 X0.130188 Y-0.742892 Z0.0477333 E0.660217
G1 X0.17209 Y-0.764366 Z0.0478 E0.661159
G1 X0.215928 Y-0.784073 Z0.0478667 E0.66212
G1 X0.261605 Y-0.801884 Z0.0479333 E0.6631
G1 X0.309017 Y-0.817675 Z0.048 E0.6641
G1 X0.33909 Y-0.780337 Z0.0480667 E0.665059
G1 X0.366433 Y-0.742423 Z0.0481333 E0.665994
G1 X0.391033 Y-0.704091 Z0.0482 E0.666905
G1 X0.412886 Y-0.665492 Z0.0482667 E0.667792
G1 X0.431996 Y-0.626782 Z0.0483333 E0.668655
G1 X0.448374 Y-0.588112 Z0.0484 E0.669495
G1 X0.462043 Y-0.54963 Z0.0484667 E0.670312
G1 X0.47303 Y-0.511484 Z0.0485333 E0.671106
G1 X0.481372 Y-0.473818 Z0.0486 E0.671877
G1 X0.487115 Y-0.436774 Z0.0486667 E0.672627
G1 X0.49031 Y-0.400487 Z0.0487333 E0.673356
G1 X0.491018 Y-0.365092 Z0.0488 E0.674064
G1 X0.489304 Y-0.330717 Z0.0488667 E0.674752
G1 X0.485244 Y-0.297486 Z0.0489333 E0.675421
G1 X0.478917 Y-0.265519 Z0.049 E0.676073
G1 X0.515724 Y-0.265036 Z0.0490667 E0.676809
G1 X0.552888 Y-0.26219 Z0.0491333 E0.677555
G1 X0.590262 Y-0.256935 Z0.0492 E0.67831
G1 X0.627697 Y-0.249234 Z0.0492667 E0.679074
G1 X0.665045 Y-0.239054 Z0.0493333 E0.679848
G1 X0.702152 Y-0.226374 Z0.0494 E0.680633
G1 X0.738867 Y-0.211179 Z0.0494667 E0.681427
G1 X0.775034 Y-0.193461 Z0.0495333 E0.682233
G1 X0.8105 Y-0.173223 Z0.0496 E0.683049
G1 X0.845111 Y-0.150475 Z0.0496667 E0.683878
G1 X0.878713 Y-0.125235 Z0.0497333 E0.684718
G1 X0.911153 Y-0.097528 Z0.0498 E0.685572
G1 X0.94228 Y-0.06739 Z0.0498667 E0.686438
G1 X0.971945 Y-0.0348637 Z0.0499333 E0.687319
G1 X1 Y-4.03881e-18 Z0.05 E0.688214
G1 X0.977054 Y0.0325084 Z0.0500667 E0.689009
G1 X0.95247 Y0.0631115 Z0.0501333 E0.689794
G1 X0.926371 Y0.0917604 Z0.0502 E0.69057
G1 X0.898879 Y0.118413 Z0.0502667 E0.691335
G1 X0.870118 Y0.143034 Z0.0503333 E0.692093
G1 X0.840215 Y0.165594 Z0.0504 E0.692842
G1 X0.809298 Y0.186072 Z0.0504667 E0.693583
G1 X0.777496 Y0.204452 Z0.0505333 E0.694318
G1 X0.744939 Y0.220727 Z0.0506 E0.695046
G1 X0.711756 Y0.234895 Z0.0506667 E0.695768
G1 X0.678076 Y0.24696 Z0.0507333 E0.696483
G1 X0.644029 Y0.256935 Z0.0508 E0.697193
G1 X0.609744 Y0.264839 Z0.0508667 E0.697896
G1 X0.575348 Y0.270695 Z0.0509333 E0.698594
G1 X0.540966 Y0.274535 Z0.051 E0.699286
G1 X0.541343 Y0.303838 Z0.0510667 E0.699872
G1 X0.539622 Y0.334058 Z0.0511333 E0.700478
G1 X0.535745 Y0.365092 Z0.0512 E0.701103
G1 X0.529662 Y0.396834 Z0.0512667 E0.70175
G1 X0.521329 Y0.429174 Z0.0513333 E0.702417
G1 X0.510705 Y0.461999 Z0.0514 E0.703107
G1 X0.497761 Y0.495193 Z0.0514667 E0.70382
G1 X0.48247 Y0.528637 Z0.0515333 E0.704556
G1 X0.464813 Y0.562209 Z0.0516 E0.705314
G1 X0.444778 Y0.595786 Z0.0516667 E0.706096
G1 X0.422362 Y0.629242 Z0.0517333 E0.706902
G1 X0.397565 Y0.662452 Z0.0518 E0.707731
G1 X0.370396 Y0.695288 Z0.0518667 E0.708583
G1 X0.340873 Y0.72762 Z0.0519333 E0.709459
G1 X0.309017 Y0.759321 Z0.052 E0.710357
G1 X0.26298 Y0.747711 Z0.0520667 E0.711307
G1 X0.218263 Y0.734293 Z0.0521333 E0.712241
G1 X0.174964 Y0.719163 Z0.0522 E0.713158
G1 X0.133176 Y0.702425 Z0.0522667 E0.714058
G1 X0.092984 Y0.684185 Z0.0523333 E0.714941
G1 X0.0544688 Y0.664551 Z0.0524 E0.715806
G1 X0.0177043 Y0.643635 Z0.0524667 E0.716652
G1 X-0.0172417 Y0.621552 Z0.0525333 E0.717478
G1 X-0.0503079 Y0.598416 Z0.0526 E0.718286
G1 X-0.0814395 Y0.574347 Z0.0526667 E0.719073
G1 X-0.110588 Y0.549464 Z0.0527333 E0.719839
G1 X-0.137713 Y0.523887 Z0.0528 E0.720585
G1 X-0.162779 Y0.497737 Z0.0528667 E0.721309
G1 X-0.185759 Y0.471137 Z0.0529333 E0.722012
G1 X-0.20663 Y0.444207 Z0.053 E0.722694
G1 X-0.240779 Y0.458477 Z0.0530667 E0.723434
G1 X-0.27624 Y0.471298 Z0.0531333 E0.724188
G1 X-0.312921 Y0.482574 Z0.0532 E0.724955
G1 X-0.350727 Y0.492217 Z0.0532667 E0.725736
G1 X-0.389557 Y0.500139 Z0.0533333 E0.726528
G1 X-0.429306 Y0.506258 Z0.0534 E0.727333
G1 X-0.469863 Y0.510499 Z0.0534667 E0.728148
G1 X-0.511116 Y0.512787 Z0.0535333 E0.728975
G1 X-0.552945 Y0.513058 Z0.0536 E0.729811
G1 X-0.59523 Y0.511249 Z0.0536667 E0.730658
G1 X-0.637845 Y0.507306 Z0.0537333 E0.731514
G1 X-0.680663 Y0.501178 Z0.0538 E0.732379
G1 X-0.723553 Y0.492823 Z0.0538667 E0.733253
G1 X-0.766383 Y0.482202 Z0.0539333 E0.734135
G1 X-0.809017 Y0.469286 Z0.054 E0.735026
G1 X-0.814523 Y0.429603 Z0.0540667 E0.735827
G1 X-0.817577 Y0.390706 Z0.0541333 E0.736608
G1 X-0.818237 Y0.352707 Z0.0542 E0.737368
G1 X-0.816571 Y0.31571 Z0.0542667 E0.738109
G1 X-0.812651 Y0.279816 Z0.0543333 E0.738831
G1 X-0.806551 Y0.245121 Z0.0544 E0.739535
G1 X-0.798356 Y0.211717 Z0.0544667 E0.740223
G1 X-0.788152 Y0.179688 Z0.0545333 E0.740895
G1 X-0.776031 Y0.149114 Z0.0546 E0.741553
G1 X-0.762088 Y0.120071 Z0.0546667 E0.742198
G1 X-0.746423 Y0.092627 Z0.0547333 E0.74283
G1 X-0.729141 Y0.0668444 Z0.0548 E0.74345
G1 X-0.710347 Y0.0427799 Z0.0548667 E0.744061
G1 X-0.690153 Y0.0204837 Z0.0549333 E0.744663
G1 X-0.66867 Y5.31604e-17 Z0.055 E0.745256
G1 X-0.690153 Y-0.0204837 Z0.0550667 E0.74585
G1 X-0.710347 Y-0.0427799 Z0.0551333 E0.746452
G1 X-0.729141 Y-0.0668444 Z0.0552 E0.747062
G1 X-0.746423 Y-0.092627 Z0.0552667 E0.747683
G1 X-0.762088 Y-0.120071 Z0.0553333 E0.748315
G1 X-0.776031 Y-0.149114 Z0.0554 E0.748959
G1 X-0.788152 Y-0.179688 Z0.0554667 E0.749617
G1 X-0.798356 Y-0.211717 Z0.0555333 E0.75029
G1 X-0.806551 Y-0.245121 Z0.0556 E0.750977
G1 X-0.812651 Y-0.279816 Z0.0556667 E0.751682
G1 X-0.816571 Y-0.31571 Z0.0557333 E0.752404
G1 X-0.818237 Y-0.352707 Z0.0558 E0.753145
G1 X-0.817577 Y-0.390706 Z0.0558667 E0.753905
G1 X-0.814523 Y-0.429603 Z0.0559333 E0.754685
G1 X-0.809017 Y-0.469286 Z0.056 E0.755487
G1 X-0.766383 Y-0.482202 Z0.0560667 E0.756377
G1 X-0.723553 Y-0.492823 Z0.0561333 E0.75726
G1 X-0.680663 Y-0.501178 Z0.0562 E0.758134
G1 X-0.637845 Y-0.507306 Z0.0562667 E0.758999
G1 X-0.59523 Y-0.511249 Z0.0563333 E0.759855
G1 X-0.552945 Y-0.513058 Z0.0564 E0.760701
G1 X-0.511116 Y-0.512787 Z0.0564667 E0.761538
G1 X-0.469863 Y-0.510499 Z0.0565333 E0.762364
G1 X-0.429306 Y-0.506258 Z0.0566 E0.76318
G1 X-0.389557 Y-0.500139 Z0.0566667 E0.763984
G1 X-0.350727 Y-0.492217 Z0.0567333 E0.764777
G1 X-0.312921 Y-0.482574 Z0.0568 E0.765557
G1 X-0.27624 Y-0.471298 Z0.0568667 E0.766325
G1 X-0.240779 Y-0.458477 Z0.0569333 E0.767079
G1 X-0.20663 Y-0.444207 Z0.057 E0.767819
G1 X-0.185759 Y-0.471137 Z0.0570667 E0.7685
G1 X-0.162779 Y-0.497737 Z0.0571333 E0.769204
G1 X-0.137713 Y-0.523887 Z0.0572 E0.769928
G1 X-0.110588 Y-0.549464 Z0.0572667 E0.770674
G1 X-0.0814395 Y-0.574347 Z0.0573333 E0.77144
G1 X-0.0503079 Y-0.598416 Z0.0574 E0.772227
G1 X-0.0172417 Y-0.621552 Z0.0574667 E0.773034
G1 X0.0177043 Y-0.643635 Z0.0575333 E0.773861
G1 X0.0544688 Y-0.664551 Z0.0576 E0.774707
G1 X0.092984 Y-0.684185 Z0.0576667 E0.775572
G1 X0.133176 Y-0.702425 Z0.0577333 E0.776454
G1 X0.174964 Y-0.719163 Z0.0578 E0.777355
G1 X0.218263 Y-0.734293 Z0.0578667 E0.778272
G1 X0.26298 Y-0.747711 Z0.0579333 E0.779206
G1 X0.309017 Y-0.759321 Z0.058 E0.780155
G1 X0.340873 Y-0.72762 Z0.0580667 E0.781054
G1 X0.370396 Y-0.695288 Z0.0581333 E0.78193
G1 X0.397565 Y-0.662452 Z0.0582 E0.782782
G1 X0.422362 Y-0.629242 Z0.0582667 E0.783611
G1 X0.444778 Y-0.595786 Z0.0583333 E0.784417
G1 X0.464813 Y-0.562209 Z0.0584 E0.785199
G1 X0.48247 Y-0.528637 Z0.0584667 E0.785957
G1 X0.497761 Y-0.495193 Z0.0585333 E0.786693
G1 X0.510705 Y-0.461999 Z0.0586 E0.787405
G1 X0.521329 Y-0.429174 Z0.0586667 E0.788095
G1 X0.529662 Y-0.396834 Z0.0587333 E0.788763
G1 X0.535745 Y-0.365092 Z0.0588 E0.78941
G1 X0.539622 Y-0.334058 Z0.0588667 E0.790035
G1 X0.541343 Y-0.303838 Z0.0589333 E0.79064
G1 X0.540966 Y-0.274535 Z0.059 E0.791227
G1 X0.575348 Y-0.270695 Z0.0590667 E0.791918
G1 X0.609744 Y-0.264839 Z0.0591333 E0.792616
G1 X0.644029 Y-0.256935 Z0.0592 E0.79332
G1 X0.678076 Y-0.24696 Z0.0592667 E0.79403
G1 X0.711756 Y-0.234895 Z0.0593333 E0.794745
G1 X0.744939 Y-0.220727 Z0.0594 E0.795467
G1 X0.777496 Y-0.204452 Z0.0594667 E0.796195
G1 X0.809298 Y-0.186072 Z0.0595333 E0.796929
G1 X0.840215 Y-0.165594 Z0.0596 E0.797671
G1 X0.870118 Y-0.143034 Z0.0596667 E0.79842
G1 X0.898879 Y-0.118413 Z0.0597333 E0.799177
G1 X0.926371 Y-0.0917604 Z0.0598 E0.799943
G1 X0.95247 Y-0.0631115 Z0.0598667 E0.800718
G1 X0.977054 Y-0.0325084 Z0.0599333 E0.801503
G1 X1 Y7.31596e-19 Z0.06 E0.802299
G1 X0.982337 Y0.0300724 Z0.0600667 E0.802997
G1 X0.96301 Y0.0586863 Z0.0601333 E0.803687
G1 X0.942111 Y0.085795 Z0.0602 E0.804372
G1 X0.919736 Y0.111357 Z0.0602667 E0.805051
G1 X0.895982 Y0.135337 Z0.0603333 E0.805726
G1 X0.870949 Y0.157703 Z0.0604 E0.806398
G1 X0.844737 Y0.178429 Z0.0604667 E0.807066
G1 X0.81745 Y0.197496 Z0.0605333 E0.807732
G1 X0.789192 Y0.214887 Z0.0606 E0.808395
G1 X0.760068 Y0.230593 Z0.0606667 E0.809057
G1 X0.730182 Y0.244609 Z0.0607333 E0.809717
G1 X0.699641 Y0.256935 Z0.0608 E0.810376
G1 X0.66855 Y0.267578 Z0.0608667 E0.811033
G1 X0.637015 Y0.276548 Z0.0609333 E0.811689
G1 X0.605142 Y0.283861 Z0.061 E0.812343
G1 X0.599366 Y0.310408 Z0.0610667 E0.812886
G1 X0.591665 Y0.337513 Z0.0611333 E0.81345
G1 X0.582007 Y0.365092 Z0.0612 E0.814034
G1 X0.570364 Y0.393055 Z0.0612667 E0.81464
G1 X0.556715 Y0.421314 Z0.0613333 E0.815268
G1 X0.541044 Y0.449775 Z0.0614 E0.815918
G1 X0.52334 Y0.478344 Z0.0614667 E0.81659
G1 X0.503597 Y0.506924 Z0.0615333 E0.817285
G1 X0.481815 Y0.535418 Z0.0616 E0.818002
G1 X0.457999 Y0.563726 Z0.0616667 E0.818742
G1 X0.432162 Y0.591749 Z0.0617333 E0.819504
G1 X0.40432 Y0.619386 Z0.0618 E0.820289
G1 X0.374495 Y0.646536 Z0.0618667 E0.821095
G1 X0.342716 Y0.673096 Z0.0619333 E0.821924
G1 X0.309017 Y0.698966 Z0.062 E0.822773
G1 X0.264402 Y0.691682 Z0.0620667 E0.823678
G1 X0.220678 Y0.682806 Z0.0621333 E0.82457
G1 X0.177937 Y0.67241 Z0.0622 E0.82545
G1 X0.136266 Y0.660572 Z0.0622667 E0.826316
G1 X0.095748 Y0.647369 Z0.0623333 E0.827168
G1 X0.0564611 Y0.632883 Z0.0624 E0.828006
G1 X0.0184796 Y0.617199 Z0.0624667 E0.828828
G1 X-0.0181277 Y0.600403 Z0.0625333 E0.829633
G1 X-0.0532965 Y0.582582 Z0.0626 E0.830422
G1 X-0.0869674 Y0.563828 Z0.0626667 E0.831192
G1 X-0.119087 Y0.544232 Z0.0627333 E0.831945
G1 X-0.149605 Y0.523887 Z0.0628 E0.832679
G1 X-0.178478 Y0.502886 Z0.0628667 E0.833393
G1 X-0.205669 Y0.481324 Z0.0629333 E0.834087
G1 X-0.231144 Y0.459296 Z0.063 E0.83476
G1 X-0.266587 Y0.468391 Z0.0630667 E0.835492
G1 X-0.302881 Y0.476173 Z0.0631333 E0.836234
G1 X-0.339941 Y0.482574 Z0.0632 E0.836987
G1 X-0.377678 Y0.48753 Z0.0632667 E0.837748
G1 X-0.415999 Y0.490979 Z0.0633333 E0.838517
G1 X-0.454809 Y0.492863 Z0.0634 E0.839294
G1 X-0.494009 Y0.493128 Z0.0634667 E0.840078
G1 X-0.533497 Y0.491725 Z0.0635333 E0.840869
G1 X-0.573171 Y0.488609 Z0.0636 E0.841665
G1 X-0.612923 Y0.483739 Z0.0636667 E0.842466
G1 X-0.652645 Y0.477079 Z0.0637333 E0.843271
G1 X-0.692228 Y0.468597 Z0.0638 E0.844081
G1 X-0.73156 Y0.458267 Z0.0638667 E0.844894
G1 X-0.770527 Y0.446069 Z0.0639333 E0.845711
G1 X-0.809017 Y0.431985 Z0.064 E0.84653
G1 X-0.818928 Y0.39741 Z0.0640667 E0.84725
G1 X-0.826624 Y0.363311 Z0.0641333 E0.847949
G1 X-0.83214 Y0.329777 Z0.0642 E0.848629
G1 X-0.835519 Y0.296899 Z0.0642667 E0.84929
G1 X-0.836807 Y0.264759 Z0.0643333 E0.849933
G1 X-0.836054 Y0.233441 Z0.0644 E0.85056
G1 X-0.833316 Y0.203021 Z0.0644667 E0.85117
G1 X-0.828654 Y0.173573 Z0.0645333 E0.851767
G1 X-0.822131 Y0.145169 Z0.0646 E0.85235
G1 X-0.813817 Y0.117872 Z0.0646667 E0.85292
G1 X-0.803781 Y0.0917451 Z0.0647333 E0.85348
G1 X-0.792102 Y0.0668444 Z0.0648 E0.85403
G1 X-0.778856 Y0.0432224 Z0.0648667 E0.854572
G1 X-0.764126 Y0.0209266 Z0.0649333 E0.855106
G1 X-0.747996 Y5.98738e-17 Z0.065 E0.855635
G1 X-0.764126 Y-0.0209266 Z0.0650667 E0.856163
G1 X-0.778856 Y-0.0432224 Z0.0651333 E0.856698
G1 X-0.792102 Y-0.0668444 Z0.0652 E0.857239
G1 X-0.803781 Y-0.0917451 Z0.0652667 E0.857789
G1 X-0.813817 Y-0.117872 Z0.0653333 E0.858349
G1 X-0.822131 Y-0.145169 Z0.0654 E0.85892
G1 X-0.828654 Y-0.173573 Z0.0654667 E0.859503
G1 X-0.833316 Y-0.203021 Z0.0655333 E0.860099
G1 X-0.836054 Y-0.233441 Z0.0656 E0.86071
G1 X-0.836807 Y-0.264759 Z0.0656667 E0.861336
G1 X-0.835519 Y-0.296899 Z0.0657333 E0.86198
G1 X-0.83214 Y-0.329777 Z0.0658 E0.862641
G1 X-0.826624 Y-0.363311 Z0.0658667 E0.86332
G1 X-0.818928 Y-0.39741 Z0.0659333 E0.864019
G1 X-0.809017 Y-0.431985 Z0.066 E0.864739
G1 X-0.770527 Y-0.446069 Z0.0660667 E0.865558
G1 X-0.73156 Y-0.458267 Z0.0661333 E0.866375
G1 X-0.692228 Y-0.468597 Z0.0662 E0.867188
G1 X-0.652645 Y-0.477079 Z0.0662667 E0.867998
G1 X-0.612923 Y-0.483739 Z0.0663333 E0.868804
G1 X-0.573171 Y-0.488609 Z0.0664 E0.869605
G1 X-0.533497 Y-0.491725 Z0.0664667 E0.870401
G1 X-0.494009 Y-0.493128 Z0.0665333 E0.871191
G1 X-0.454809 Y-0.492863 Z0.0666 E0.871975
G1 X-0.415999 Y-0.490979 Z0.0666667 E0.872752
G1 X-0.377678 Y-0.48753 Z0.0667333 E0.873521
G1 X-0.339941 Y-0.482574 Z0.0668 E0.874283
G1 X-0.302881 Y-0.476173 Z0.0668667 E0.875035
G1 X-0.266587 Y-0.468391 Z0.0669333 E0.875777
G1 X-0.231144 Y-0.459296 Z0.067 E0.876509
G1 X-0.205669 Y-0.481324 Z0.0670667 E0.877183
G1 X-0.178478 Y-0.502886 Z0.0671333 E0.877877
G1 X-0.149605 Y-0.523887 Z0.0672 E0.878591
G1 X-0.119087 Y-0.544232 Z0.0672667 E0.879324
G1 X-0.0869674 Y-0.563828 Z0.0673333 E0.880077
G1 X-0.0532965 Y-0.582582 Z0.0674 E0.880848
G1 X-0.0181277 Y-0.600403 Z0.0674667 E0.881636
G1 X0.0184796 Y-0.617199 Z0.0675333 E0.882442
G1 X0.0564611 Y-0.632883 Z0.0676 E0.883264
G1 X0.095748 Y-0.647369 Z0.0676667 E0.884101
G1 X0.136266 Y-0.660572 Z0.0677333 E0.884953
G1 X0.177937 Y-0.67241 Z0.0678 E0.88582
G1 X0.220678 Y-0.682806 Z0.0678667 E0.886699
G1 X0.264402 Y-0.691682 Z0.0679333 E0.887592
G1 X0.309017 Y-0.698966 Z0.068 E0.888496
G1 X0.342716 Y-0.673096 Z0.0680667 E0.889346
G1 X0.374495 Y-0.646536 Z0.0681333 E0.890174
G1 X0.40432 Y-0.619386 Z0.0682 E0.89098
G1 X0.432162 Y-0.591749 Z0.0682667 E0.891765
G1 X0.457999 Y-0.563726 Z0.0683333 E0.892527
G1 X0.481815 Y-0.535418 Z0.0684 E0.893267
G1 X0.503597 Y-0.506924 Z0.0684667 E0.893985
G1 X0.52334 Y-0.478344 Z0.0685333 E0.894679
G1 X0.541044 Y-0.449775 Z0.0686 E0.895352
G1 X0.556715 Y-0.421314 Z0.0686667 E0.896001
G1 X0.570364 Y-0.393055 Z0.0687333 E0.896629
G1 X0.582007 Y-0.365092 Z0.0688 E0.897235
G1 X0.591665 Y-0.337513 Z0.0688667 E0.897819
G1 X0.599366 Y-0.310408 Z0.0689333 E0.898383
G1 X0.605142 Y-0.283861 Z0.069 E0.898926
G1 X0.637015 Y-0.276548 Z0.0690667 E0.89958
G1 X0.66855 Y-0.267578 Z0.0691333 E0.900236
G1 X0.699641 Y-0.256935 Z0.0692 E0.900893
G1 X0.730182 Y-0.244609 Z0.0692667 E0.901552
G1 X0.760068 Y-0.230593 Z0.0693333 E0.902212
G1 X0.789192 Y-0.214887 Z0.0694 E0.902874
G1 X0.81745 Y-0.197496 Z0.0694667 E0.903537
G1 X0.844737 Y-0.178429 Z0.0695333 E0.904203
G1 X0.870949 Y-0.157703 Z0.0696 E0.904872
G1 X0.895982 Y-0.135337 Z0.0696667 E0.905543
G1 X0.919736 Y-0.111357 Z0.0697333 E0.906218
G1 X0.942111 Y-0.085795 Z0.0698 E0.906897
G1 X0.96301 Y-0.0586863 Z0.0698667 E0.907582
G1 X0.982337 Y-0.0300724 Z0.0699333 E0.908273
G1 X1 Y5.34387e-18 Z0.07 E0.90897
G1 X0.987446 Y0.0277171 Z0.0700667 E0.909579
G1 X0.973201 Y0.0544077 Z0.0701333 E0.910184
G1 X0.95733 Y0.0800275 Z0.0702 E0.910786
G1 X0.939902 Y0.104536 Z0.0702667 E0.911388
G1 X0.920989 Y0.127895 Z0.0703333 E0.911989
G1 X0.900663 Y0.150073 Z0.0704 E0.912591
G1 X0.879001 Y0.17104 Z0.0704667 E0.913194
G1 X0.85608 Y0.19077 Z0.0705333 E0.913799
G1 X0.831979 Y0.20924 Z0.0706 E0.914406
G1 X0.806778 Y0.226433 Z0.0706667 E0.915016
G1 X0.780561 Y0.242335 Z0.0707333 E0.915629
G1 X0.753409 Y0.256935 Z0.0708 E0.916246
G1 X0.725407 Y0.270227 Z0.0708667 E0.916866
G1 X0.696639 Y0.282207 Z0.0709333 E0.917489
G1 X0.667191 Y0.292877 Z0.071 E0.918115
G1 X0.655466 Y0.31676 Z0.0710667 E0.918648
G1 X0.641983 Y0.340854 Z0.0711333 E0.9192
G1 X0.626734 Y0.365092 Z0.0712 E0.919772
G1 X0.609716 Y0.389402 Z0.0712667 E0.920366
G1 X0.590929 Y0.413714 Z0.0713333 E0.92098
G1 X0.570377 Y0.437956 Z0.0714 E0.921616
G1 X0.548071 Y0.462053 Z0.0714667 E0.922273
G1 X0.524024 Y0.485931 Z0.0715333 E0.922951
G1 X0.498253 Y0.509515 Z0.0716 E0.923649
G1 X0.470782 Y0.53273 Z0.0716667 E0.924369
G1 X0.441638 Y0.555499 Z0.0717333 E0.925108
G1 X0.410851 Y0.577748 Z0.0718 E0.925868
G1 X0.378458 Y0.5994 Z0.0718667 E0.926647
G1 X0.344498 Y0.620379 Z0.0719333 E0.927446
G1 X0.309017 Y0.640611 Z0.072 E0.928262
G1 X0.265777 Y0.637509 Z0.0720667 E0.929129
G1 X0.223013 Y0.633025 Z0.0721333 E0.929989
G1 X0.180811 Y0.627208 Z0.0722 E0.930841
G1 X0.139254 Y0.620106 Z0.0722667 E0.931685
G1 X0.0984203 Y0.611773 Z0.0723333 E0.932518
G1 X0.0583875 Y0.602265 Z0.0724 E0.933341
G1 X0.0192291 Y0.591639 Z0.0724667 E0.934153
G1 X-0.0189844 Y0.579955 Z0.0725333 E0.934952
G1 X-0.056186 Y0.567273 Z0.0726 E0.935738
G1 X-0.0923121 Y0.553658 Z0.0726667 E0.93651
G1 X-0.127303 Y0.539174 Z0.0727333 E0.937267
G1 X-0.161102 Y0.523887 Z0.0728 E0.938009
G1 X-0.193657 Y0.507864 Z0.0728667 E0.938735
G1 X-0.224919 Y0.491174 Z0.0729333 E0.939444
G1 X-0.254844 Y0.473885 Z0.073 E0.940135
G1 X-0.291539 Y0.477975 Z0.0730667 E0.940873
G1 X-0.328639 Y0.480886 Z0.0731333 E0.941618
G1 X-0.366066 Y0.482574 Z0.0732 E0.942367
G1 X-0.403735 Y0.482999 Z0.0732667 E0.94312
G1 X-0.441564 Y0.482123 Z0.0733333 E0.943877
G1 X-0.479466 Y0.479912 Z0.0734 E0.944637
G1 X-0.517354 Y0.476334 Z0.0734667 E0.945398
G1 X-0.555137 Y0.471362 Z0.0735333 E0.94616
G1 X-0.592726 Y0.464971 Z0.0736 E0.946922
G1 X-0.63003 Y0.45714 Z0.0736667 E0.947685
G1 X-0.666955 Y0.447853 Z0.0737333 E0.948446
G1 X-0.70341 Y0.437095 Z0.0738 E0.949206
G1 X-0.739301 Y0.424857 Z0.0738667 E0.949965
G1 X-0.774534 Y0.411133 Z0.0739333 E0.950721
G1 X-0.809017 Y0.39592 Z0.074 E0.951475
G1 X-0.823187 Y0.366285 Z0.0740667 E0.952132
G1 X-0.835371 Y0.336824 Z0.0741333 E0.952769
G1 X-0.845582 Y0.307608 Z0.0742 E0.953388
G1 X-0.853839 Y0.278711 Z0.0742667 E0.95399
G1 X-0.860162 Y0.250201 Z0.0743333 E0.954574
G1 X-0.864578 Y0.222147 Z0.0744 E0.955142
G1 X-0.867117 Y0.194613 Z0.0744667 E0.955695
G1 X-0.867813 Y0.167662 Z0.0745333 E0.956234
G1 X-0.866704 Y0.141354 Z0.0746 E0.95676
G1 X-0.86383 Y0.115746 Z0.0746667 E0.957276
G1 X-0.859238 Y0.0908924 Z0.0747333 E0.957781
G1 X-0.852975 Y0.0668444 Z0.0748 E0.958278
G1 X-0.845093 Y0.0436502 Z0.0748667 E0.958768
G1 X-0.835647 Y0.0213549 Z0.0749333 E0.959253
G1 X-0.824693 Y6.63646e-17 Z0.075 E0.959733
G1 X-0.835647 Y-0.0213549 Z0.0750667 E0.960213
G1 X-0.845093 Y-0.0436502 Z0.0751333 E0.960697
G1 X-0.852975 Y-0.0668444 Z0.0752 E0.961187
G1 X-0.859238 Y-0.0908924 Z0.0752667 E0.961684
G1 X-0.86383 Y-0.115746 Z0.0753333 E0.962189
G1 X-0.866704 Y-0.141354 Z0.0754 E0.962705
G1 X-0.867813 Y-0.167662 Z0.0754667 E0.963231
G1 X-0.867117 Y-0.194613 Z0.0755333 E0.96377
G1 X-0.864578 Y-0.222147 Z0.0756 E0.964323
G1 X-0.860162 Y-0.250201 Z0.0756667 E0.964891
G1 X-0.853839 Y-0.278711 Z0.0757333 E0.965476
G1 X-0.845582 Y-0.307608 Z0.0758 E0.966077
G1 X-0.835371 Y-0.336824 Z0.0758667 E0.966696
G1 X-0.823187 Y-0.366285 Z0.0759333 E0.967333
G1 X-0.809017 Y-0.39592 Z0.076 E0.96799
G1 X-0.774534 Y-0.411133 Z0.0760667 E0.968744
G1 X-0.739301 Y-0.424857 Z0.0761333 E0.9695
G1 X-0.70341 Y-0.437095 Z0.0762 E0.970259
G1 X-0.666955 Y-0.447853 Z0.0762667 E0.971019
G1 X-0.63003 Y-0.45714 Z0.0763333 E0.97178
G1 X-0.592726 Y-0.464971 Z0.0764 E0.972543
G1 X-0.555137 Y-0.471362 Z0.0764667 E0.973305
G1 X-0.517354 Y-0.476334 Z0.0765333 E0.974067
G1 X-0.479466 Y-0.479912 Z0.0766 E0.974828
G1 X-0.441564 Y-0.482123 Z0.0766667 E0.975588
G1 X-0.403735 Y-0.482999 Z0.0767333 E0.976345
G1 X-0.366066 Y-0.482574 Z0.0768 E0.977098
G1 X-0.328639 Y-0.480886 Z0.0768667 E0.977847
G1 X-0.291539 Y-0.477975 Z0.0769333 E0.978592
G1 X-0.254844 Y-0.473885 Z0.077 E0.97933
G1 X-0.224919 Y-0.491174 Z0.0770667 E0.980021
G1 X-0.193657 Y-0.507864 Z0.0771333 E0.98073
G1 X-0.161102 Y-0.523887 Z0.0772 E0.981456
G1 X-0.127303 Y-0.539174 Z0.0772667 E0.982198
G1 X-0.0923121 Y-0.553658 Z0.0773333 E0.982955
G1 X-0.056186 Y-0.567273 Z0.0774 E0.983727
G1 X-0.0189844 Y-0.579955 Z0.0774667 E0.984513
G1 X0.0192291 Y-0.591639 Z0.0775333 E0.985312
G1 X0.0583875 Y-0.602265 Z0.0776 E0.986124
G1 X0.0984203 Y-0.611773 Z0.0776667 E0.986947
G1 X0.139254 Y-0.620106 Z0.0777333 E0.98778
G1 X0.180811 Y-0.627208 Z0.0778 E0.988624
G1 X0.223013 Y-0.633025 Z0.0778667 E0.989476
G1 X0.265777 Y-0.637509 Z0.0779333 E0.990336
G1 X0.309017 Y-0.640611 Z0.078 E0.991203
G1 X0.344498 Y-0.620379 Z0.0780667 E0.992019
G1 X0.378458 Y-0.5994 Z0.0781333 E0.992818
G1 X0.410851 Y-0.577748 Z0.0782 E0.993597
G1 X0.441638 Y-0.555499 Z0.0782667 E0.994357
G1 X0.470782 Y-0.53273 Z0.0783333 E0.995096
G1 X0.498253 Y-0.509515 Z0.0784 E0.995816
G1 X0.524024 Y-0.485931 Z0.0784667 E0.996514
G1 X0.548071 Y-0.462053 Z0.0785333 E0.997192
G1 X0.570377 Y-0.437956 Z0.0786 E0.997849
G1 X0.590929 Y-0.413714 Z0.0786667 E0.998485
G1 X0.609716 Y-0.389402 Z0.0787333 E0.999099
G1 X0.626734 Y-0.365092 Z0.0788 E0.999693
G1 X0.641983 Y-0.340854 Z0.0788667 E1.00027
G1 X0.655466 Y-0.31676 Z0.0789333 E1.00082
G1 X0.667191 Y-0.292877 Z0.079 E1.00135
G1 X0.696639 Y-0.282207 Z0.0790667 E1.00198
G1 X0.725407 Y-0.270227 Z0.0791333 E1.0026
G1 X0.753409 Y-0.256935 Z0.0792 E1.00322
G1 X0.780561 Y-0.242335 Z0.0792667 E1.00384
G1 X0.806778 Y-0.226433 Z0.0793333 E1.00445
G1 X0.831979 Y-0.20924 Z0.0794 E1.00506
G1 X0.85608 Y-0.19077 Z0.0794667 E1.00567
G1 X0.879001 Y-0.17104 Z0.0795333 E1.00627
G1 X0.900663 Y-0.150073 Z0.0796 E1.00687
G1 X0.920989 Y-0.127895 Z0.0796667 E1.00748
G1 X0.939902 Y-0.104536 Z0.0797333 E1.00808
G1 X0.95733 Y-0.0800275 Z0.0798 E1.00868
G1 X0.973201 Y-0.0544077 Z0.0798667 E1.00928
G1 X0.987446 Y-0.0277171 Z0.0799333 E1.00989
G1 X1 Y9.48173e-18 Z0.08 E1.01049
G1 X0.992029 Y0.0256041 Z0.0800667 E1.01103
G1 X0.982343 Y0.0505692 Z0.0801333 E1.01157
G1 X0.970983 Y0.0748531 Z0.0802 E1.0121
G1 X0.957994 Y0.0984157 Z0.0802667 E1.01264
G1 X0.943424 Y0.121219 Z0.0803333 E1.01318
G1 X0.927322 Y0.143229 Z0.0804 E1.01373
G1 X0.909741 Y0.164411 Z0.0804667 E1.01428
G1 X0.890736 Y0.184735 Z0.0805333 E1.01483
G1 X0.870364 Y0.204174 Z0.0806 E1.0154
G1 X0.848684 Y0.222702 Z0.0806667 E1.01597
G1 X0.825757 Y0.240296 Z0.0807333 E1.01655
G1 X0.801646 Y0.256935 Z0.0808 E1.01713
G1 X0.776415 Y0.272603 Z0.0808667 E1.01773
G1 X0.75013 Y0.287284 Z0.0809333 E1.01833
G1 X0.722858 Y0.300966 Z0.081 E1.01894
G1 X0.705795 Y0.322459 Z0.0810667 E1.01949
G1 X0.687125 Y0.343852 Z0.0811333 E1.02006
G1 X0.666861 Y0.365092 Z0.0812 E1.02064
G1 X0.64502 Y0.386125 Z0.0812667 E1.02125
G1 X0.621623 Y0.406896 Z0.0813333 E1.02187
G1 X0.596693 Y0.427352 Z0.0814 E1.02252
G1 X0.570258 Y0.447437 Z0.0814667 E1.02318
G1 X0.542349 Y0.467097 Z0.0815333 E1.02387
G1 X0.513001 Y0.486276 Z0.0816 E1.02457
G1 X0.48225 Y0.504921 Z0.0816667 E1.02529
G1 X0.450139 Y0.522978 Z0.0817333 E1.02602
G1 X0.41671 Y0.540392 Z0.0818 E1.02678
G1 X0.382013 Y0.557112 Z0.0818667 E1.02755
G1 X0.346097 Y0.573085 Z0.0819333 E1.02833
G1 X0.309017 Y0.588259 Z0.082 E1.02914
G1 X0.267011 Y0.588909 Z0.0820667 E1.02998
G1 X0.225108 Y0.588365 Z0.0821333 E1.03081
G1 X0.18339 Y0.586654 Z0.0822 E1.03165
G1 X0.141934 Y0.583802 Z0.0822667 E1.03248
G1 X0.100818 Y0.579839 Z0.0823333 E1.03331
G1 X0.0601157 Y0.574796 Z0.0824 E1.03413
G1 X0.0199016 Y0.568708 Z0.0824667 E1.03494
G1 X-0.0197529 Y0.56161 Z0.0825333 E1.03575
G1 X-0.0587782 Y0.553539 Z0.0826 E1.03654
G1 X-0.097107 Y0.544534 Z0.0826667 E1.03733
G1 X-0.134674 Y0.534636 Z0.0827333 E1.03811
G1 X-0.171417 Y0.523887 Z0.0828 E1.03887
G1 X-0.207274 Y0.51233 Z0.0828667 E1.03963
G1 X-0.242189 Y0.50001 Z0.0829333 E1.04037
G1 X-0.276107 Y0.486973 Z0.083 E1.04109
G1 X-0.313924 Y0.486574 Z0.0830667 E1.04185
G1 X-0.351748 Y0.485115 Z0.0831333 E1.04261
G1 X-0.389503 Y0.482574 Z0.0832 E1.04336
G1 X-0.427113 Y0.478934 Z0.0832667 E1.04412
G1 X-0.4645 Y0.474178 Z0.0833333 E1.04487
G1 X-0.501588 Y0.468292 Z0.0834 E1.04562
G1 X-0.538297 Y0.461267 Z0.0834667 E1.04637
G1 X-0.574551 Y0.453092 Z0.0835333 E1.04711
G1 X-0.61027 Y0.443764 Z0.0836 E1.04785
G1 X-0.645377 Y0.433278 Z0.0836667 E1.04859
G1 X-0.679793 Y0.421634 Z0.0837333 E1.04931
G1 X-0.713442 Y0.408834 Z0.0838 E1.05003
G1 X-0.746246 Y0.394883 Z0.0838667 E1.05075
G1 X-0.778129 Y0.37979 Z0.0839333 E1.05145
G1 X-0.809017 Y0.363564 Z0.084 E1.05215
G1 X-0.827008 Y0.338362 Z0.0840667 E1.05277
G1 X-0.843218 Y0.313061 Z0.0841333 E1.05337
G1 X-0.857642 Y0.287719 Z0.0842 E1.05395
G1 X-0.870274 Y0.262394 Z0.0842667 E1.05452
G1 X-0.881115 Y0.237141 Z0.0843333 E1.05507
G1 X-0.890168 Y0.212015 Z0.0844 E1.0556
G1 X-0.897441 Y0.18707 Z0.0844667 E1.05612
G1 X-0.902944 Y0.162359 Z0.0845333 E1.05663
G1 X-0.906691 Y0.137932 Z0.0846 E1.05712
G1 X-0.9087 Y0.113839 Z0.0846667 E1.05761
G1 X-0.908991 Y0.0901274 Z0.0847333 E1.05808
G1 X-0.907587 Y0.0668444 Z0.0848 E1.05855
G1 X-0.904518 Y0.0440341 Z0.0848667 E1.05901
G1 X-0.899811 Y0.0217391 Z0.0849333 E1.05946
G1 X-0.893501 Y7.21878e-17 Z0.085 E1.05992
G1 X-0.899811 Y-0.0217391 Z0.0850667 E1.06037
G1 X-0.904518 Y-0.0440341 Z0.0851333 E1.06082
G1 X-0.907587 Y-0.0668444 Z0.0852 E1.06128
G1 X-0.908991 Y-0.0901274 Z0.0852667 E1.06175
G1 X-0.9087 Y-0.113839 Z0.0853333 E1.06222
G1 X-0.906691 Y-0.137932 Z0.0854 E1.06271
G1 X-0.902944 Y-0.162359 Z0.0854667 E1.0632
G1 X-0.897441 Y-0.18707 Z0.0855333 E1.06371
G1 X-0.890168 Y-0.212015 Z0.0856 E1.06423
G1 X-0.881115 Y-0.237141 Z0.0856667 E1.06476
G1 X-0.870274 Y-0.262394 Z0.0857333 E1.06531
G1 X-0.857642 Y-0.287719 Z0.0858 E1.06588
G1 X-0.843218 Y-0.313061 Z0.0858667 E1.06646
G1 X-0.827008 Y-0.338362 Z0.0859333 E1.06706
G1 X-0.809017 Y-0.363564 Z0.086 E1.06768
G1 X-0.778129 Y-0.37979 Z0.0860667 E1.06838
G1 X-0.746246 Y-0.394883 Z0.0861333 E1.06909
G1 X-0.713442 Y-0.408834 Z0.0862 E1.0698
G1 X-0.679793 Y-0.421634 Z0.0862667 E1.07052
G1 X-0.645377 Y-0.433278 Z0.0863333 E1.07124
G1 X-0.61027 Y-0.443764 Z0.0864 E1.07198
G1 X-0.574551 Y-0.453092 Z0.0864667 E1.07272
G1 X-0.538297 Y-0.461267 Z0.0865333 E1.07346
G1 X-0.501588 Y-0.468292 Z0.0866 E1.07421
G1 X-0.4645 Y-0.474178 Z0.0866667 E1.07496
G1 X-0.427113 Y-0.478934 Z0.0867333 E1.07571
G1 X-0.389503 Y-0.482574 Z0.0868 E1.07647
G1 X-0.351748 Y-0.485115 Z0.0868667 E1.07722
G1 X-0.313924 Y-0.486574 Z0.0869333 E1.07798
G1 X-0.276107 Y-0.486973 Z0.087 E1.07874
G1 X-0.242189 Y-0.50001 Z0.0870667 E1.07946
G1 X-0.207274 Y-0.51233 Z0.0871333 E1.0802
G1 X-0.171417 Y-0.523887 Z0.0872 E1.08096
G1 X-0.134674 Y-0.534636 Z0.0872667 E1.08172
G1 X-0.097107 Y-0.544534 Z0.0873333 E1.0825
G1 X-0.0587782 Y-0.553539 Z0.0874 E1.08329
G1 X-0.0197529 Y-0.56161 Z0.0874667 E1.08409
G1 X0.0199016 Y-0.568708 Z0.0875333 E1.08489
G1 X0.0601157 Y-0.574796 Z0.0876 E1.0857
G1 X0.100818 Y-0.579839 Z0.0876667 E1.08652
G1 X0.141934 Y-0.583802 Z0.0877333 E1.08735
G1 X0.18339 Y-0.586654 Z0.0878 E1.08818
G1 X0.225108 Y-0.588365 Z0.0878667 E1.08902
G1 X0.267011 Y-0.588909 Z0.0879333 E1.08986
G1 X0.309017 Y-0.588259 Z0.088 E1.0907
G1 X0.346097 Y-0.573085 Z0.0880667 E1.0915
G1 X0.382013 Y-0.557112 Z0.0881333 E1.09228
G1 X0.41671 Y-0.540392 Z0.0882 E1.09305
G1 X0.450139 Y-0.522978 Z0.0882667 E1.09381
G1 X0.48225 Y-0.504921 Z0.0883333 E1.09454
G1 X0.513001 Y-0.486276 Z0.0884 E1.09526
G1 X0.542349 Y-0.467097 Z0.0884667 E1.09596
G1 X0.570258 Y-0.447437 Z0.0885333 E1.09665
G1 X0.596693 Y-0.427352 Z0.0886 E1.09731
G1 X0.621623 Y-0.406896 Z0.0886667 E1.09796
G1 X0.64502 Y-0.386125 Z0.0887333 E1.09858
G1 X0.666861 Y-0.365092 Z0.0888 E1.09919
G1 X0.687125 Y-0.343852 Z0.0888667 E1.09978
G1 X0.705795 Y-0.322459 Z0.0889333 E1.10034
G1 X0.722858 Y-0.300966 Z0.089 E1.10089
G1 X0.75013 Y-0.287284 Z0.0890667 E1.1015
G1 X0.776415 Y-0.272603 Z0.0891333 E1.1021
G1 X0.801646 Y-0.256935 Z0.0892 E1.1027
G1 X0.825757 Y-0.240296 Z0.0892667 E1.10328
G1 X0.848684 Y-0.222702 Z0.0893333 E1.10386
G1 X0.870364 Y-0.204174 Z0.0894 E1.10443
G1 X0.890736 Y-0.184735 Z0.0894667 E1.105
G1 X0.909741 Y-0.164411 Z0.0895333 E1.10555
G1 X0.927322 Y-0.143229 Z0.0896 E1.1061
G1 X0.943424 Y-0.121219 Z0.0896667 E1.10665
G1 X0.957994 Y-0.0984157 Z0.0897333 E1.10719
G1 X0.970983 Y-0.0748531 Z0.0898 E1.10773
G1 X0.982343 Y-0.0505692 Z0.0898667 E1.10826
G1 X0.992029 Y-0.0256041 Z0.0899333 E1.1088
G1 X1 Y1.28289e-17 Z0.09 E1.10934
G1 X0.995737 Y0.0238949 Z0.0900667 E1.10982
G1 X0.989738 Y0.0474642 Z0.0901333 E1.11031
G1 X0.982027 Y0.0706675 Z0.0902 E1.1108
G1 X0.972629 Y0.0934651 Z0.0902667 E1.11129
G1 X0.961572 Y0.115819 Z0.0903333 E1.11179
G1 X0.948886 Y0.137692 Z0.0904 E1.11229
G1 X0.934607 Y0.159048 Z0.0904667 E1.11281
G1 X0.91877 Y0.179854 Z0.0905333 E1.11333
G1 X0.901415 Y0.200076 Z0.0906 E1.11386
G1 X0.882583 Y0.219683 Z0.0906667 E1.11441
G1 X0.862318 Y0.238646 Z0.0907333 E1.11496
G1 X0.840666 Y0.256935 Z0.0908 E1.11553
G1 X0.817677 Y0.274525 Z0.0908667 E1.11611
G1 X0.793399 Y0.291391 Z0.0909333 E1.1167
G1 X0.767887 Y0.307509 Z0.091 E1.1173
G1 X0.746507 Y0.327068 Z0.0910667 E1.11788
G1 X0.723642 Y0.346276 Z0.0911333 E1.11848
G1 X0.699321 Y0.365092 Z0.0912 E1.1191
G1 X0.673579 Y0.383474 Z0.0912667 E1.11973
G1 X0.646452 Y0.401381 Z0.0913333 E1.12038
G1 X0.61798 Y0.418775 Z0.0914 E1.12105
G1 X0.588206 Y0.435615 Z0.0914667 E1.12173
G1 X0.557173 Y0.451862 Z0.0915333 E1.12243
G1 X0.52493 Y0.467478 Z0.0916 E1.12315
G1 X0.491527 Y0.482427 Z0.0916667 E1.12388
G1 X0.457015 Y0.496671 Z0.0917333 E1.12463
G1 X0.42145 Y0.510175 Z0.0918 E1.12539
G1 X0.384889 Y0.522905 Z0.0918667 E1.12616
G1 X0.347391 Y0.534827 Z0.0919333 E1.12695
G1 X0.309017 Y0.545911 Z0.092 E1.12775
G1 X0.268008 Y0.549595 Z0.0920667 E1.12857
G1 X0.226803 Y0.552239 Z0.0921333 E1.1294
G1 X0.185476 Y0.55385 Z0.0922 E1.13022
G1 X0.144103 Y0.554435 Z0.0922667 E1.13105
G1 X0.102757 Y0.554007 Z0.0923333 E1.13188
G1 X0.0615136 Y0.552576 Z0.0924 E1.1327
G1 X0.0204456 Y0.550159 Z0.0924667 E1.13353
G1 X-0.0203746 Y0.54677 Z0.0925333 E1.13434
G1 X-0.0608752 Y0.542429 Z0.0926 E1.13516
G1 X-0.100986 Y0.537153 Z0.0926667 E1.13597
G1 X-0.140637 Y0.530965 Z0.0927333 E1.13677
G1 X-0.17976 Y0.523887 Z0.0928 E1.13757
G1 X-0.21829 Y0.515942 Z0.0928667 E1.13835
G1 X-0.25616 Y0.507158 Z0.0929333 E1.13913
G1 X-0.293307 Y0.49756 Z0.093 E1.1399
G1 X-0.332032 Y0.49353 Z0.0930667 E1.14068
G1 X-0.370441 Y0.488536 Z0.0931333 E1.14145
G1 X-0.408462 Y0.482574 Z0.0932 E1.14222
G1 X-0.446023 Y0.475645 Z0.0932667 E1.14298
G1 X-0.483054 Y0.467751 Z0.0933333 E1.14374
G1 X-0.519482 Y0.458893 Z0.0934 E1.14449
G1 X-0.555239 Y0.449079 Z0.0934667 E1.14523
G1 X-0.590255 Y0.438314 Z0.0935333 E1.14597
G1 X-0.624462 Y0.426609 Z0.0936 E1.14669
G1 X-0.657791 Y0.413975 Z0.0936667 E1.1474
G1 X-0.690178 Y0.400424 Z0.0937333 E1.1481
G1 X-0.721557 Y0.385973 Z0.0938 E1.14879
G1 X-0.751864 Y0.370637 Z0.0938667 E1.14947
G1 X-0.781037 Y0.354436 Z0.0939333 E1.15014
G1 X-0.809017 Y0.337391 Z0.094 E1.1508
G1 X-0.830098 Y0.315774 Z0.0940667 E1.1514
G1 X-0.849566 Y0.293838 Z0.0941333 E1.15199
G1 X-0.867397 Y0.27163 Z0.0942 E1.15256
G1 X-0.883569 Y0.249195 Z0.0942667 E1.15311
G1 X-0.898064 Y0.226576 Z0.0943333 E1.15365
G1 X-0.910869 Y0.203819 Z0.0944 E1.15417
G1 X-0.921971 Y0.180969 Z0.0944667 E1.15468
G1 X-0.931363 Y0.158069 Z0.0945333 E1.15517
G1 X-0.939038 Y0.135163 Z0.0946 E1.15566
G1 X-0.944996 Y0.112296 Z0.0946667 E1.15613
G1 X-0.949236 Y0.0895086 Z0.0947333 E1.15659
G1 X-0.951764 Y0.0668444 Z0.0948 E1.15705
G1 X-0.952587 Y0.0443446 Z0.0948667 E1.1575
G1 X-0.951715 Y0.0220498 Z0.0949333 E1.15794
G1 X-0.949161 Y7.68982e-17 Z0.095 E1.15839
G1 X-0.951715 Y-0.0220498 Z0.0950667 E1.15883
G1 X-0.952587 Y-0.0443446 Z0.0951333 E1.15928
G1 X-0.951764 Y-0.0668444 Z0.0952 E1.15973
G1 X-0.949236 Y-0.0895086 Z0.0952667 E1.16019
G1 X-0.944996 Y-0.112296 Z0.0953333 E1.16065
G1 X-0.939038 Y-0.135163 Z0.0954 E1.16112
G1 X-0.931363 Y-0.158069 Z0.0954667 E1.1616
G1 X-0.921971 Y-0.180969 Z0.0955333 E1.1621
G1 X-0.910869 Y-0.203819 Z0.0956 E1.16261
G1 X-0.898064 Y-0.226576 Z0.0956667 E1.16313
G1 X-0.883569 Y-0.249195 Z0.0957333 E1.16367
G1 X-0.867397 Y-0.27163 Z0.0958 E1.16422
G1 X-0.849566 Y-0.293838 Z0.0958667 E1.16479
G1 X-0.830098 Y-0.315774 Z0.0959333 E1.16538
G1 X-0.809017 Y-0.337391 Z0.096 E1.16598
G1 X-0.781037 Y-0.354436 Z0.0960667 E1.16664
G1 X-0.751864 Y-0.370637 Z0.0961333 E1.1673
G1 X-0.721557 Y-0.385973 Z0.0962 E1.16798
G1 X-0.690178 Y-0.400424 Z0.0962667 E1.16867
G1 X-0.657791 Y-0.413975 Z0.0963333 E1.16938
G1 X-0.624462 Y-0.426609 Z0.0964 E1.17009
G1 X-0.590255 Y-0.438314 Z0.0964667 E1.17081
G1 X-0.555239 Y-0.449079 Z0.0965333 E1.17154
G1 X-0.519482 Y-0.458893 Z0.0966 E1.17229
G1 X-0.483054 Y-0.467751 Z0.0966667 E1.17304
G1 X-0.446023 Y-0.475645 Z0.0967333 E1.17379
G1 X-0.408462 Y-0.482574 Z0.0968 E1.17456
G1 X-0.370441 Y-0.488536 Z0.0968667 E1.17533
G1 X-0.332032 Y-0.49353 Z0.0969333 E1.1761
G1 X-0.293307 Y-0.49756 Z0.097 E1.17688
G1 X-0.25616 Y-0.507158 Z0.0970667 E1.17765
G1 X-0.21829 Y-0.515942 Z0.0971333 E1.17842
G1 X-0.17976 Y-0.523887 Z0.0972 E1.17921
G1 X-0.140637 Y-0.530965 Z0.0972667 E1.18001
G1 X-0.100986 Y-0.537153 Z0.0973333 E1.18081
G1 X-0.0608752 Y-0.542429 Z0.0974 E1.18162
G1 X-0.0203746 Y-0.54677 Z0.0974667 E1.18243
G1 X0.0204456 Y-0.550159 Z0.0975333 E1.18325
G1 X0.0615136 Y-0.552576 Z0.0976 E1.18407
G1 X0.102757 Y-0.554007 Z0.0976667 E1.1849
G1 X0.144103 Y-0.554435 Z0.0977333 E1.18573
G1 X0.185476 Y-0.55385 Z0.0978 E1.18655
G1 X0.226803 Y-0.552239 Z0.0978667 E1.18738
G1 X0.268008 Y-0.549595 Z0.0979333 E1.18821
G1 X0.309017 Y-0.545911 Z0.098 E1.18903
G1 X0.347391 Y-0.534827 Z0.0980667 E1.18983
G1 X0.384889 Y-0.522905 Z0.0981333 E1.19062
G1 X0.42145 Y-0.510175 Z0.0982 E1.19139
G1 X0.457015 Y-0.496671 Z0.0982667 E1.19215
G1 X0.491527 Y-0.482427 Z0.0983333 E1.1929
G1 X0.52493 Y-0.467478 Z0.0984 E1.19363
G1 X0.557173 Y-0.451862 Z0.0984667 E1.19435
G1 X0.588206 Y-0.435615 Z0.0985333 E1.19505
G1 X0.61798 Y-0.418775 Z0.0986 E1.19573
G1 X0.646452 Y-0.401381 Z0.0986667 E1.1964
G1 X0.673579 Y-0.383474 Z0.0987333 E1.19705
G1 X0.699321 Y-0.365092 Z0.0988 E1.19768
G1 X0.723642 Y-0.346276 Z0.0988667 E1.1983
G1 X0.746507 Y-0.327068 Z0.0989333 E1.19889
G1 X0.767887 Y-0.307509 Z0.099 E1.19947
G1 X0.793399 Y-0.291391 Z0.0990667 E1.20008
G1 X0.817677 Y-0.274525 Z0.0991333 E1.20067
G1 X0.840666 Y-0.256935 Z0.0992 E1.20125
G1 X0.862318 Y-0.238646 Z0.0992667 E1.20181
G1 X0.882583 Y-0.219683 Z0.0993333 E1.20237
G1 X0.901415 Y-0.200076 Z0.0994 E1.20291
G1 X0.91877 Y-0.179854 Z0.0994667 E1.20345
G1 X0.934607 Y-0.159048 Z0.0995333 E1.20397
G1 X0.948886 Y-0.137692 Z0.0996 E1.20448
G1 X0.961572 Y-0.115819 Z0.0996667 E1.20499
G1 X0.972629 Y-0.0934651 Z0.0997333 E1.20549
G1 X0.982027 Y-0.0706675 Z0.0998 E1.20598
G1 X0.989738 Y-0.0474642 Z0.0998667 E1.20647
G1 X0.995737 Y-0.0238949 Z0.0999333 E1.20696
G1 X1 Y1.50692e-17 Z0.1 E1.20744
G1 X0.998218 Y0.0227509 Z0.100067 E1.2079
G1 X0.994688 Y0.0453861 Z0.100133 E1.20836
G1 X0.989419 Y0.0678661 Z0.1002 E1.20882
G1 X0.982424 Y0.0901517 Z0.100267 E1.20928
G1 X0.973718 Y0.112204 Z0.100333 E1.20976
G1 X0.963319 Y0.133986 Z0.1004 E1.21024
G1 X0.95125 Y0.155459 Z0.100467 E1.21073
G1 X0.937533 Y0.176587 Z0.100533 E1.21124
G1 X0.922197 Y0.197333 Z0.1006 E1.21175
G1 X0.905271 Y0.217663 Z0.100667 E1.21228
G1 X0.886788 Y0.237541 Z0.100733 E1.21283
G1 X0.866782 Y0.256935 Z0.1008 E1.21338
G1 X0.845293 Y0.275812 Z0.100867 E1.21396
G1 X0.822359 Y0.29414 Z0.100933 E1.21454
G1 X0.798025 Y0.311888 Z0.101 E1.21515
G1 X0.773756 Y0.330154 Z0.101067 E1.21575
G1 X0.748082 Y0.347899 Z0.101133 E1.21638
G1 X0.721045 Y0.365092 Z0.1012 E1.21702
G1 X0.692692 Y0.381699 Z0.101267 E1.21767
G1 X0.66307 Y0.39769 Z0.101333 E1.21835
G1 X0.632228 Y0.413034 Z0.1014 E1.21904
G1 X0.600218 Y0.427702 Z0.101467 E1.21974
G1 X0.567095 Y0.441665 Z0.101533 E1.22046
G1 X0.532915 Y0.454897 Z0.1016 E1.22119
G1 X0.497736 Y0.467371 Z0.101667 E1.22194
G1 X0.461618 Y0.479063 Z0.101733 E1.2227
G1 X0.424622 Y0.48995 Z0.1018 E1.22347
G1 X0.386814 Y0.50001 Z0.101867 E1.22425
G1 X0.348256 Y0.509222 Z0.101933 E1.22505
G1 X0.309017 Y0.517567 Z0.102 E1.22585
G1 X0.268676 Y0.523283 Z0.102067 E1.22666
G1 X0.227937 Y0.52806 Z0.102133 E1.22748
G1 X0.186872 Y0.531894 Z0.1022 E1.22831
G1 X0.145554 Y0.53478 Z0.102267 E1.22914
G1 X0.104055 Y0.536717 Z0.102333 E1.22997
G1 X0.0624493 Y0.537705 Z0.1024 E1.2308
G1 X0.0208096 Y0.537744 Z0.102467 E1.23163
G1 X-0.0207907 Y0.536839 Z0.102533 E1.23246
G1 X-0.0622787 Y0.534993 Z0.1026 E1.2333
G1 X-0.103582 Y0.532213 Z0.102667 E1.23412
G1 X-0.144628 Y0.528508 Z0.102733 E1.23495
G1 X-0.185345 Y0.523887 Z0.1028 E1.23577
G1 X-0.225662 Y0.51836 Z0.102867 E1.23658
G1 X-0.26551 Y0.511942 Z0.102933 E1.23739
G1 X-0.304819 Y0.504646 Z0.103 E1.23819
G1 X-0.344152 Y0.498186 Z0.103067 E1.23898
G1 X-0.382953 Y0.490825 Z0.103133 E1.23977
G1 X-0.421151 Y0.482574 Z0.1032 E1.24056
G1 X-0.45868 Y0.473445 Z0.103267 E1.24133
G1 X-0.495471 Y0.463449 Z0.103333 E1.24209
G1 X-0.531459 Y0.452602 Z0.1034 E1.24284
G1 X-0.566578 Y0.440921 Z0.103467 E1.24358
G1 X-0.600766 Y0.428423 Z0.103533 E1.24431
G1 X-0.63396 Y0.415128 Z0.1036 E1.24503
G1 X-0.6661 Y0.401056 Z0.103667 E1.24573
G1 X-0.697128 Y0.386229 Z0.103733 E1.24642
G1 X-0.726988 Y0.370672 Z0.1038 E1.24709
G1 X-0.755624 Y0.354409 Z0.103867 E1.24775
G1 X-0.782984 Y0.337467 Z0.103933 E1.24839
G1 X-0.809017 Y0.319874 Z0.104 E1.24902
G1 X-0.832167 Y0.300656 Z0.104067 E1.24962
G1 X-0.853815 Y0.280973 Z0.104133 E1.25021
G1 X-0.873926 Y0.260862 Z0.1042 E1.25078
G1 X-0.892467 Y0.240361 Z0.104267 E1.25133
G1 X-0.909408 Y0.219505 Z0.104333 E1.25187
G1 X-0.924724 Y0.198334 Z0.1044 E1.25239
G1 X-0.938389 Y0.176885 Z0.104467 E1.2529
G1 X-0.950383 Y0.155197 Z0.104533 E1.25339
G1 X-0.960687 Y0.13331 Z0.1046 E1.25388
G1 X-0.969288 Y0.111263 Z0.104667 E1.25435
G1 X-0.976172 Y0.0890944 Z0.104733 E1.25481
G1 X-0.981331 Y0.0668444 Z0.1048 E1.25527
G1 X-0.984759 Y0.0445524 Z0.104867 E1.25572
G1 X-0.986453 Y0.0222578 Z0.104933 E1.25617
G1 X-0.986414 Y8.00509e-17 Z0.105 E1.25661
G1 X-0.986453 Y-0.0222578 Z0.105067 E1.25706
G1 X-0.984759 Y-0.0445524 Z0.105133 E1.25751
G1 X-0.981331 Y-0.0668444 Z0.1052 E1.25796
G1 X-0.976172 Y-0.0890944 Z0.105267 E1.25841
G1 X-0.969288 Y-0.111263 Z0.105333 E1.25888
G1 X-0.960687 Y-0.13331 Z0.1054 E1.25935
G1 X-0.950383 Y-0.155197 Z0.105467 E1.25984
G1 X-0.938389 Y-0.176885 Z0.105533 E1.26033
G1 X-0.924724 Y-0.198334 Z0.1056 E1.26084
G1 X-0.909408 Y-0.219505 Z0.105667 E1.26136
G1 X-0.892467 Y-0.240361 Z0.105733 E1.2619
G1 X-0.873926 Y-0.260862 Z0.1058 E1.26245
G1 X-0.853815 Y-0.280973 Z0.105867 E1.26302
G1 X-0.832167 Y-0.300656 Z0.105933 E1.26361
G1 X-0.809017 Y-0.319874 Z0.106 E1.26421
G1 X-0.782984 Y-0.337467 Z0.106067 E1.26484
G1 X-0.755624 Y-0.354409 Z0.106133 E1.26548
G1 X-0.726988 Y-0.370672 Z0.1062 E1.26614
G1 X-0.697128 Y-0.386229 Z0.106267 E1.26681
G1 X-0.6661 Y-0.401056 Z0.106333 E1.2675
G1 X-0.63396 Y-0.415128 Z0.1064 E1.2682
G1 X-0.600766 Y-0.428423 Z0.106467 E1.26892
G1 X-0.566578 Y-0.440921 Z0.106533 E1.26965
G1 X-0.531459 Y-0.452602 Z0.1066 E1.27039
G1 X-0.495471 Y-0.463449 Z0.106667 E1.27114
G1 X-0.45868 Y-0.473445 Z0.106733 E1.2719
G1 X-0.421151 Y-0.482574 Z0.1068 E1.27267
G1 X-0.382953 Y-0.490825 Z0.106867 E1.27345
G1 X-0.344152 Y-0.498186 Z0.106933 E1.27424
G1 X-0.304819 Y-0.504646 Z0.107 E1.27504
G1 X-0.26551 Y-0.511942 Z0.107067 E1.27584
G1 X-0.225662 Y-0.51836 Z0.107133 E1.27665
G1 X-0.185345 Y-0.523887 Z0.1072 E1.27746
G1 X-0.144628 Y-0.528508 Z0.107267 E1.27828
G1 X-0.103582 Y-0.532213 Z0.107333 E1.27911
G1 X-0.0622787 Y-0.534993 Z0.1074 E1.27993
G1 X-0.0207907 Y-0.536839 Z0.107467 E1.28076
G1 X0.0208096 Y-0.537744 Z0.107533 E1.2816
G1 X0.0624493 Y-0.537705 Z0.1076 E1.28243
G1 X0.104055 Y-0.536717 Z0.107667 E1.28326
G1 X0.145554 Y-0.53478 Z0.107733 E1.28409
G1 X0.186872 Y-0.531894 Z0.1078 E1.28492
G1 X0.227937 Y-0.52806 Z0.107867 E1.28575
G1 X0.268676 Y-0.523283 Z0.107933 E1.28657
G1 X0.309017 Y-0.517567 Z0.108 E1.28738
G1 X0.348256 Y-0.509222 Z0.108067 E1.28818
G1 X0.386814 Y-0.50001 Z0.108133 E1.28898
G1 X0.424622 Y-0.48995 Z0.1082 E1.28976
G1 X0.461618 Y-0.479063 Z0.108267 E1.29053
G1 X0.497736 Y-0.467371 Z0.108333 E1.29129
G1 X0.532915 Y-0.454897 Z0.1084 E1.29204
G1 X0.567095 Y-0.441665 Z0.108467 E1.29277
G1 X0.600218 Y-0.427702 Z0.108533 E1.29349
G1 X0.632228 Y-0.413034 Z0.1086 E1.29419
G1 X0.66307 Y-0.39769 Z0.108667 E1.29488
G1 X0.692692 Y-0.381699 Z0.108733 E1.29555
G1 X0.721045 Y-0.365092 Z0.1088 E1.29621
G1 X0.748082 Y-0.347899 Z0.108867 E1.29685
G1 X0.773756 Y-0.330154 Z0.108933 E1.29748
G1 X0.798025 Y-0.311888 Z0.109 E1.29808
G1 X0.822359 Y-0.29414 Z0.109067 E1.29869
G1 X0.845293 Y-0.275812 Z0.109133 E1.29927
G1 X0.866782 Y-0.256935 Z0.1092 E1.29985
G1 X0.886788 Y-0.237541 Z0.109267 E1.3004
G1 X0.905271 Y-0.217663 Z0.109333 E1.30095
G1 X0.922197 Y-0.197333 Z0.1094 E1.30147
G1 X0.937533 Y-0.176587 Z0.109467 E1.30199
G1 X0.95125 Y-0.155459 Z0.109533 E1.30249
G1 X0.963319 Y-0.133986 Z0.1096 E1.30299
G1 X0.973718 Y-0.112204 Z0.109667 E1.30347
G1 X0.982424 Y-0.0901517 Z0.109733 E1.30394
G1 X0.989419 Y-0.0678661 Z0.1098 E1.30441
G1 X0.994688 Y-0.0453861 Z0.109867 E1.30487
G1 X0.998218 Y-0.0227509 Z0.109933 E1.30533
G1 X1 Y1.58862e-17 Z0.11 E1.30579
G1 X0.999123 Y0.0223337 Z0.110067 E1.30623
G1 X0.996493 Y0.0446282 Z0.110133 E1.30668
G1 X0.992115 Y0.0668444 Z0.1102 E1.30714
G1 X0.985996 Y0.0889433 Z0.110267 E1.3076
G1 X0.978148 Y0.110886 Z0.110333 E1.30806
G1 X0.968583 Y0.132635 Z0.1104 E1.30854
G1 X0.957319 Y0.15415 Z0.110467 E1.30902
G1 X0.944376 Y0.175396 Z0.110533 E1.30952
G1 X0.929776 Y0.196333 Z0.1106 E1.31003
G1 X0.913545 Y0.216926 Z0.110667 E1.31055
G1 X0.895712 Y0.237139 Z0.110733 E1.31109
G1 X0.876307 Y0.256935 Z0.1108 E1.31165
G1 X0.855364 Y0.276281 Z0.110867 E1.31222
G1 X0.832921 Y0.295142 Z0.110933 E1.3128
G1 X0.809017 Y0.313485 Z0.111 E1.31341
G1 X0.783693 Y0.331279 Z0.111067 E1.31403
G1 X0.756995 Y0.348491 Z0.111133 E1.31466
G1 X0.728969 Y0.365092 Z0.1112 E1.31531
G1 X0.699663 Y0.381052 Z0.111267 E1.31598
G1 X0.669131 Y0.396344 Z0.111333 E1.31666
G1 X0.637424 Y0.41094 Z0.1114 E1.31736
G1 X0.604599 Y0.424816 Z0.111467 E1.31807
G1 X0.570714 Y0.437946 Z0.111533 E1.3188
G1 X0.535827 Y0.450308 Z0.1116 E1.31954
G1 X0.5 Y0.46188 Z0.111667 E1.32029
G1 X0.463296 Y0.472642 Z0.111733 E1.32106
G1 X0.425779 Y0.482574 Z0.1118 E1.32184
G1 X0.387516 Y0.49166 Z0.111867 E1.32262
G1 X0.348572 Y0.499884 Z0.111933 E1.32342
G1 X0.309017 Y0.50723 Z0.112 E1.32422
G1 X0.26892 Y0.513687 Z0.112067 E1.32503
G1 X0.228351 Y0.519242 Z0.112133 E1.32585
G1 X0.187381 Y0.523887 Z0.1122 E1.32668
G1 X0.146083 Y0.527612 Z0.112267 E1.32751
G1 X0.104528 Y0.530412 Z0.112333 E1.32834
G1 X0.0627905 Y0.532281 Z0.1124 E1.32918
G1 X0.0209424 Y0.533216 Z0.112467 E1.33001
G1 X-0.0209424 Y0.533216 Z0.112533 E1.33085
G1 X-0.0627905 Y0.532281 Z0.1126 E1.33169
G1 X-0.104528 Y0.530412 Z0.112667 E1.33252
G1 X-0.146083 Y0.527612 Z0.112733 E1.33336
G1 X-0.187381 Y0.523887 Z0.1128 E1.33419
G1 X-0.228351 Y0.519242 Z0.112867 E1.33501
G1 X-0.26892 Y0.513687 Z0.112933 E1.33583
G1 X-0.309017 Y0.50723 Z0.113 E1.33664
G1 X-0.348572 Y0.499884 Z0.113067 E1.33745
G1 X-0.387516 Y0.49166 Z0.113133 E1.33824
G1 X-0.425779 Y0.482574 Z0.1132 E1.33903
G1 X-0.463296 Y0.472642 Z0.113267 E1.33981
G1 X-0.5 Y0.46188 Z0.113333 E1.34057
G1 X-0.535827 Y0.450308 Z0.1134 E1.34132
G1 X-0.570714 Y0.437946 Z0.113467 E1.34206
G1 X-0.604599 Y0.424816 Z0.113533 E1.34279
G1 X-0.637424 Y0.41094 Z0.1136 E1.3435
G1 X-0.669131 Y0.396344 Z0.113667 E1.3442
G1 X-0.699663 Y0.381052 Z0.113733 E1.34488
G1 X-0.728969 Y0.365092 Z0.1138 E1.34555
G1 X-0.756995 Y0.348491 Z0.113867 E1.3462
G1 X-0.783693 Y0.331279 Z0.113933 E1.34684
G1 X-0.809017 Y0.313485 Z0.114 E1.34746
G1 X-0.832921 Y0.295142 Z0.114067 E1.34806
G1 X-0.855364 Y0.276281 Z0.114133 E1.34865
G1 X-0.876307 Y0.256935 Z0.1142 E1.34922
G1 X-0.895712 Y0.237139 Z0.114267 E1.34977
G1 X-0.913545 Y0.216926 Z0.114333 E1.35031
G1 X-0.929776 Y0.196333 Z0.1144 E1.35083
G1 X-0.944376 Y0.175396 Z0.114467 E1.35135
G1 X-0.957319 Y0.15415 Z0.114533 E1.35184
G1 X-0.968583 Y0.132635 Z0.1146 E1.35233
G1 X-0.978148 Y0.110886 Z0.114667 E1.3528
G1 X-0.985996 Y0.0889433 Z0.114733 E1.35327
G1 X-0.992115 Y0.0668444 Z0.1148 E1.35373
G1 X-0.996493 Y0.0446282 Z0.114867 E1.35418
G1 X-0.999123 Y0.0223337 Z0.114933 E1.35463
G1 X-1 Y8.12007e-17 Z0.115 E1.35508
G1 X-0.999123 Y-0.0223337 Z0.115067 E1.35552
G1 X-0.996493 Y-0.0446282 Z0.115133 E1.35597
G1 X-0.992115 Y-0.0668444 Z0.1152 E1.35643
G1 X-0.985996 Y-0.0889433 Z0.115267 E1.35688
G1 X-0.978148 Y-0.110886 Z0.115333 E1.35735
G1 X-0.968583 Y-0.132635 Z0.1154 E1.35783
G1 X-0.957319 Y-0.15415 Z0.115467 E1.35831
G1 X-0.944376 Y-0.175396 Z0.115533 E1.35881
G1 X-0.929776 Y-0.196333 Z0.1156 E1.35932
G1 X-0.913545 Y-0.216926 Z0.115667 E1.35984
G1 X-0.895712 Y-0.237139 Z0.115733 E1.36038
G1 X-0.876307 Y-0.256935 Z0.1158 E1.36094
G1 X-0.855364 Y-0.276281 Z0.115867 E1.36151
G1 X-0.832921 Y-0.295142 Z0.115933 E1.36209
G1 X-0.809017 Y-0.313485 Z0.116 E1.3627
G1 X-0.783693 Y-0.331279 Z0.116067 E1.36332
G1 X-0.756995 Y-0.348491 Z0.116133 E1.36395
G1 X-0.728969 Y-0.365092 Z0.1162 E1.3646
G1 X-0.699663 Y-0.381052 Z0.116267 E1.36527
G1 X-0.669131 Y-0.396344 Z0.116333 E1.36595
G1 X-0.637424 Y-0.41094 Z0.1164 E1.36665
G1 X-0.604599 Y-0.424816 Z0.116467 E1.36736
G1 X-0.570714 Y-0.437946 Z0.116533 E1.36809
G1 X-0.535827 Y-0.450308 Z0.1166 E1.36883
G1 X-0.5 Y-0.46188 Z0.116667 E1.36958
G1 X-0.463296 Y-0.472642 Z0.116733 E1.37035
G1 X-0.425779 Y-0.482574 Z0.1168 E1.37113
G1 X-0.387516 Y-0.49166 Z0.116867 E1.37191
G1 X-0.348572 Y-0.499884 Z0.116933 E1.37271
G1 X-0.309017 Y-0.50723 Z0.117 E1.37351
G1 X-0.26892 Y-0.513687 Z0.117067 E1.37432
G1 X-0.228351 Y-0.519242 Z0.117133 E1.37514
G1 X-0.187381 Y-0.523887 Z0.1172 E1.37597
G1 X-0.146083 Y-0.527612 Z0.117267 E1.3768
G1 X-0.104528 Y-0.530412 Z0.117333 E1.37763
G1 X-0.0627905 Y-0.532281 Z0.1174 E1.37847
G1 X-0.0209424 Y-0.533216 Z0.117467 E1.3793
G1 X0.0209424 Y-0.533216 Z0.117533 E1.38014
G1 X0.0627905 Y-0.532281 Z0.1176 E1.38098
G1 X0.104528 Y-0.530412 Z0.117667 E1.38181
G1 X0.146083 Y-0.527612 Z0.117733 E1.38265
G1 X0.187381 Y-0.523887 Z0.1178 E1.38348
G1 X0.228351 Y-0.519242 Z0.117867 E1.3843
G1 X0.26892 Y-0.513687 Z0.117933 E1.38512
G1 X0.309017 Y-0.50723 Z0.118 E1.38593
G1 X0.348572 Y-0.499884 Z0.118067 E1.38674
G1 X0.387516 Y-0.49166 Z0.118133 E1.38753
G1 X0.425779 Y-0.482574 Z0.1182 E1.38832
G1 X0.463296 Y-0.472642 Z0.118267 E1.3891
G1 X0.5 Y-0.46188 Z0.118333 E1.38986
G1 X0.535827 Y-0.450308 Z0.1184 E1.39061
G1 X0.570714 Y-0.437946 Z0.118467 E1.39135
G1 X0.604599 Y-0.424816 Z0.118533 E1.39208
G1 X0.637424 Y-0.41094 Z0.1186 E1.39279
G1 X0.669131 Y-0.396344 Z0.118667 E1.39349
G1 X0.699663 Y-0.381052 Z0.118733 E1.39417
G1 X0.728969 Y-0.365092 Z0.1188 E1.39484
G1 X0.756995 Y-0.348491 Z0.118867 E1.39549
G1 X0.783693 Y-0.331279 Z0.118933 E1.39613
G1 X0.809017 Y-0.313485 Z0.119 E1.39675
G1 X0.832921 Y-0.295142 Z0.119067 E1.39735
G1 X0.855364 Y-0.276281 Z0.119133 E1.39794
G1 X0.876307 Y-0.256935 Z0.1192 E1.39851
G1 X0.895712 Y-0.237139 Z0.119267 E1.39906
G1 X0.913545 Y-0.216926 Z0.119333 E1.3996
G1 X0.929776 Y-0.196333 Z0.1194 E1.40012
G1 X0.944376 Y-0.175396 Z0.119467 E1.40063
G1 X0.957319 Y-0.15415 Z0.119533 E1.40113
G1 X0.968583 Y-0.132635 Z0.1196 E1.40162
G1 X0.978148 Y-0.110886 Z0.119667 E1.40209
G1 X0.985996 Y-0.0889433 Z0.119733 E1.40256
G1 X0.992115 Y-0.0668444 Z0.1198 E1.40302
G1 X0.996493 Y-0.0446282 Z0.119867 E1.40347
G1 X0.999123 Y-0.0223337 Z0.119933 E1.40392
M104 S0
M140 S0
M84
